{
"type": "FeatureCollection",
"name": "buffer_10m",
"crs": { "type": "name", "properties": { "name": "urn:ogc:def:crs:OGC:1.3:CRS84" } },
"features": [
{ "type": "Feature", "properties": { "full_id": null, "osm_id": "342886913", "osm_type": "way", "highway": "secondary", "name": "ถนนนิมมานเหมินท์" }, "geometry": { "type": "Polygon", "coordinates": [ [ [ 98.963737851406918, 18.790397856582715 ], [ 98.963850781793113, 18.790713362561572 ], [ 98.964030581997051, 18.791215663874272 ], [ 98.964098585861606, 18.791405474951674 ], [ 98.96419458119793, 18.791673662319198 ], [ 98.964439080256312, 18.792356760698837 ], [ 98.964732879465586, 18.793177659704003 ], [ 98.964994329251482, 18.793908020512408 ], [ 98.965240677719493, 18.794603875992692 ], [ 98.965241870125851, 18.794607047631221 ], [ 98.965329671748108, 18.794827549722807 ], [ 98.965415479542628, 18.795050949622894 ], [ 98.965530484734899, 18.795349963555772 ], [ 98.965613875893197, 18.79556714082619 ], [ 98.965722184966637, 18.795848964831357 ], [ 98.965833233903453, 18.79613783239882 ], [ 98.965876311087968, 18.796251046957344 ], [ 98.96591884669553, 18.796366600529662 ], [ 98.965919294017624, 18.796367789080488 ], [ 98.966057635744505, 18.796727438078673 ], [ 98.966143478097052, 18.796953086856124 ], [ 98.966221064513491, 18.797156888787114 ], [ 98.966444945900591, 18.797758970655803 ], [ 98.96644552504884, 18.797760485096145 ], [ 98.966681861114893, 18.798361759998947 ], [ 98.966772118660558, 18.798607627484472 ], [ 98.96683782269389, 18.798786438730108 ], [ 98.966955715389929, 18.799107619293782 ], [ 98.967030013320979, 18.7993101139465 ], [ 98.967136818318124, 18.799601027981051 ], [ 98.96719301613895, 18.799754122264858 ], [ 98.967325643471327, 18.800115524770334 ], [ 98.967490653343972, 18.800571813757244 ], [ 98.967486617836443, 18.800573486022774 ], [ 98.967508876879322, 18.800622205723649 ], [ 98.967509573006453, 18.800624130663167 ], [ 98.967512884382487, 18.80063205226277 ], [ 98.967521640206826, 18.800650425160544 ], [ 98.967535071316405, 18.800700336995096 ], [ 98.967645289402199, 18.801108604917552 ], [ 98.967645732089835, 18.801110185271511 ], [ 98.96766822254996, 18.80118765255601 ], [ 98.967679213055533, 18.801225619827857 ], [ 98.967679254293785, 18.801225761835646 ], [ 98.967689649703615, 18.801261446145098 ], [ 98.967700745022967, 18.80129958637616 ], [ 98.967713647762352, 18.801345341562783 ], [ 98.967738261962054, 18.801432627397549 ], [ 98.967921566499783, 18.801385744203298 ], [ 98.967917185267282, 18.801370207728201 ], [ 98.968051451383957, 18.801300477377819 ], [ 98.967985793414314, 18.801185811706787 ], [ 98.967954682148289, 18.801127404761555 ], [ 98.967899624809846, 18.801023451129588 ], [ 98.967735819980163, 18.800665815662075 ], [ 98.96773713628204, 18.80066524670276 ], [ 98.967701359761293, 18.80059017479606 ], [ 98.967679869294244, 18.800510313533646 ], [ 98.967670022098943, 18.800512716942325 ], [ 98.967505026724496, 18.800056469380046 ], [ 98.967504885344241, 18.800056081298937 ], [ 98.967372185176103, 18.799694481361211 ], [ 98.967315982409048, 18.799541374042544 ], [ 98.967209183702053, 18.799250477982618 ], [ 98.967134886553382, 18.799047986045231 ], [ 98.967016982453828, 18.798726775336753 ], [ 98.966951276659884, 18.798547959810822 ], [ 98.966860681193197, 18.798301172514908 ], [ 98.966859975190118, 18.798299314751176 ], [ 98.966623571582559, 18.797697869622105 ], [ 98.966399853788943, 18.797096229406133 ], [ 98.966399614626837, 18.79709559378465 ], [ 98.966321918203278, 18.796891503461062 ], [ 98.966236021767102, 18.796665713141227 ], [ 98.96623590611388, 18.796665410812238 ], [ 98.966097733969988, 18.796306203664074 ], [ 98.966055253219054, 18.796190799447263 ], [ 98.966054919642659, 18.796189908215077 ], [ 98.966011619590518, 18.796076108235312 ], [ 98.96601151204878, 18.796075827051158 ], [ 98.965900413460105, 18.795786831117255 ], [ 98.965792119474472, 18.795505047151938 ], [ 98.965708723975055, 18.795287859170038 ], [ 98.965593713387193, 18.794988832012194 ], [ 98.965507720322591, 18.79476495037455 ], [ 98.965507329939939, 18.794763952285553 ], [ 98.965419957083185, 18.794544527560642 ], [ 98.965174121922018, 18.793850124079835 ], [ 98.965174019000926, 18.793849834973994 ], [ 98.964912519581858, 18.793119337677403 ], [ 98.964618720118352, 18.79229844039078 ], [ 98.964374218998032, 18.791615338271171 ], [ 98.964278218431275, 18.791347137084447 ], [ 98.964210213833056, 18.791157324519396 ], [ 98.964030417944969, 18.790655036749463 ], [ 98.963917418027933, 18.790339337448202 ], [ 98.963917278172445, 18.790338949602265 ], [ 98.963864678104869, 18.790194149626956 ], [ 98.963833651567754, 18.7901087381717 ], [ 98.963654295406513, 18.790167838845466 ], [ 98.963737851406918, 18.790397856582715 ] ] ] } }
]
}
