{
"type": "FeatureCollection",
"name": "gg_poi_clip_10m",
"crs": { "type": "name", "properties": { "name": "urn:ogc:def:crs:OGC:1.3:CRS84" } },
"features": [
{ "type": "Feature", "properties": { "source": "gg", "poi_id": "ChIJB4nuy0A72jARyU1FfgId10A", "poi_name": "ดูโอ้ หมึกสดย่าง เชียงใหม่", "category_raw": "restaurant", "category_std": "food_beverage", "category_std_th": "อาหารและเครื่องดื่ม", "category_sub": "restaurant", "category_sub_th": "ร้านอาหาร", "lat": 18.7948476, "lon": 98.9653485, "place_id": "ChIJB4nuy0A72jARyU1FfgId10A", "name": "ดูโอ้ หมึกสดย่าง เชียงใหม่", "pri_type": "restaurant", "types": "restaurant,food,point_of_interest,establishment", "address": "42 1 ถนนนิมมานเหมินท์ ตำบลสุเทพ เมือง เชียงใหม่ 50200", "query_lat": 18.794547428163952, "query_lon": 98.965226524508964 }, "geometry": { "type": "Point", "coordinates": [ 98.9653485, 18.7948476 ] } },
{ "type": "Feature", "properties": { "source": "gg", "poi_id": "ChIJMVzfImM62jARFvgBR2MjagI", "poi_name": "วอร์มอัพคาเฟ่", "category_raw": "night_club", "category_std": "food_beverage", "category_std_th": "อาหารและเครื่องดื่ม", "category_sub": "night_club", "category_sub_th": "night_club", "lat": 18.7952494, "lon": 98.9655087, "place_id": "ChIJMVzfImM62jARFvgBR2MjagI", "name": "วอร์มอัพคาเฟ่", "pri_type": "night_club", "types": "night_club,point_of_interest,establishment", "address": "40 ถนนนิมมานเหมินท์ ตำบลสุเทพ อำเภอเมืองเชียงใหม่ เชียงใหม่ 50200", "query_lat": 18.795001871531866, "query_lon": 98.965316175082222 }, "geometry": { "type": "Point", "coordinates": [ 98.9655087, 18.7952494 ] } },
{ "type": "Feature", "properties": { "source": "gg", "poi_id": "ChIJB_0G25g72jARJ_ZAtQi6vVQ", "poi_name": "Samizeeeee Beauty", "category_raw": "", "category_std": "other", "category_std_th": "อื่น ๆ", "category_sub": "", "category_sub_th": "", "lat": 18.7956148, "lon": 98.9656323, "place_id": "ChIJB_0G25g72jARJ_ZAtQi6vVQ", "name": "Samizeeeee Beauty", "pri_type": null, "types": "point_of_interest,establishment", "address": "โครงการ The Wall, ถนนนิมมานเหมินท์ Nimmanhaemin ตำบลช้างเผือก เมือง, เชียงใหม่ 50300", "query_lat": 18.795605115543442, "query_lon": 98.965432035490934 }, "geometry": { "type": "Point", "coordinates": [ 98.9656323, 18.7956148 ] } },
{ "type": "Feature", "properties": { "source": "gg", "poi_id": "ChIJEZfc5Xg72jARglT2hph-uTQ", "poi_name": "Queen Genius", "category_raw": "wholesaler", "category_std": "office_professional", "category_std_th": "สำนักงานและบริการวิชาชีพ", "category_sub": "wholesaler", "category_sub_th": "wholesaler", "lat": 18.7956148, "lon": 98.9656323, "place_id": "ChIJEZfc5Xg72jARglT2hph-uTQ", "name": "Queen Genius", "pri_type": "wholesaler", "types": "wholesaler,point_of_interest,service,establishment", "address": "์, ถนนนิมมานเหมินท์ Nimmanhaemin ตำบลสุเทพ อำเภอเมืองเชียงใหม่ เชียงใหม่ 50200", "query_lat": 18.795605115543442, "query_lon": 98.965432035490934 }, "geometry": { "type": "Point", "coordinates": [ 98.9656323, 18.7956148 ] } },
{ "type": "Feature", "properties": { "source": "gg", "poi_id": "ChIJSXPmF-w72jARlzYEjHMP0P4", "poi_name": "Outcall Massage Chiangmai", "category_raw": "massage", "category_std": "personal_service_repair", "category_std_th": "บริการส่วนบุคคลและงานซ่อม", "category_sub": "massage", "category_sub_th": "ร้านนวด", "lat": 18.7956148, "lon": 98.9656323, "place_id": "ChIJSXPmF-w72jARlzYEjHMP0P4", "name": "Outcall Massage Chiangmai", "pri_type": "massage", "types": "massage,point_of_interest,service,establishment", "address": "ถนนนิมมานเหมินท์ Nimmanhaemin ตำบลสุเทพ เมือง เชียงใหม่ 50200", "query_lat": 18.795605115543442, "query_lon": 98.965432035490934 }, "geometry": { "type": "Point", "coordinates": [ 98.9656323, 18.7956148 ] } },
{ "type": "Feature", "properties": { "source": "gg", "poi_id": "ChIJU0lQHQA72jARYxYrFiNTQNQ", "poi_name": "ETHEREUM Digital Nomad Shop", "category_raw": "community_center", "category_std": "education_religion", "category_std_th": "การศึกษาและศาสนา", "category_sub": "community_center", "category_sub_th": "community_center", "lat": 18.7955948, "lon": 98.9658144, "place_id": "ChIJU0lQHQA72jARYxYrFiNTQNQ", "name": "ETHEREUM Digital Nomad Shop", "pri_type": "community_center", "types": "community_center,service,event_venue,point_of_interest,establishment", "address": "B4 - 2, 20 ถนน นิมมานเหมินท์ ซอย 15 Nimmanhaemin ตำบลสุเทพ อำเภอเมืองเชียงใหม่ เชียงใหม่ 50200", "query_lat": 18.79543630601929, "query_lon": 98.965674976206074 }, "geometry": { "type": "Point", "coordinates": [ 98.9658144, 18.7955948 ] } },
{ "type": "Feature", "properties": { "source": "gg", "poi_id": "ChIJywp8sig72jARsiRmrhTaXqU", "poi_name": "Ginza Karen Thai branch", "category_raw": "store", "category_std": "retail_commerce", "category_std_th": "การค้าปลีกและร้านค้า", "category_sub": "store", "category_sub_th": "ร้านค้าทั่วไป", "lat": 18.7956409, "lon": 98.9657937, "place_id": "ChIJywp8sig72jARsiRmrhTaXqU", "name": "Ginza Karen Thai branch", "pri_type": "store", "types": "store,point_of_interest,establishment", "address": "บ้านเลขที่ 2, 8 ถนน นิมมานเหมินท์ ซอย 15 Nimmanhaemin ตำบลสุเทพ อำเภอเมืองเชียงใหม่ เชียงใหม่ 50200", "query_lat": 18.79543630601929, "query_lon": 98.965674976206074 }, "geometry": { "type": "Point", "coordinates": [ 98.9657937, 18.7956409 ] } },
{ "type": "Feature", "properties": { "source": "gg", "poi_id": "ChIJlUE2HGM62jARD7onfbi-ftQ", "poi_name": "Soi Nimmanhaemin 6", "category_raw": "bus_stop", "category_std": "other", "category_std_th": "อื่น ๆ", "category_sub": "bus_stop", "category_sub_th": "bus_stop", "lat": 18.79571, "lon": 98.96574, "place_id": "ChIJlUE2HGM62jARD7onfbi-ftQ", "name": "Soi Nimmanhaemin 6", "pri_type": "bus_stop", "types": "bus_stop,transit_stop,transit_station,transportation_service,point_of_interest,establishment", "address": "Nimmanhaemin ตำบลสุเทพ อำเภอเมืองเชียงใหม่ เชียงใหม่ 50200 ประเทศไทย", "query_lat": 18.79543630601929, "query_lon": 98.965674976206074 }, "geometry": { "type": "Point", "coordinates": [ 98.96574, 18.79571 ] } },
{ "type": "Feature", "properties": { "source": "gg", "poi_id": "ChIJ72ENSAA72jARSMsxgmkpqMY", "poi_name": "𝑻𝒐𝒂𝒔𝒕 𝒏’ 𝒄𝒖𝒑𝒔", "category_raw": "coffee_shop", "category_std": "food_beverage", "category_std_th": "อาหารและเครื่องดื่ม", "category_sub": "coffee_shop", "category_sub_th": "ร้านกาแฟ", "lat": 18.7958248, "lon": 98.9658116, "place_id": "ChIJ72ENSAA72jARSMsxgmkpqMY", "name": "𝑻𝒐𝒂𝒔𝒕 𝒏’ 𝒄𝒖𝒑𝒔", "pri_type": "coffee_shop", "types": "coffee_shop,cafe,food_store,food,store,point_of_interest,establishment", "address": "QXW8+88F ถนนนิมมานเหมินท์ Nimmanhaemin ตำบลสุเทพ อำเภอเมืองเชียงใหม่ เชียงใหม่ 50200", "query_lat": 18.795772885954225, "query_lon": 98.965701487216407 }, "geometry": { "type": "Point", "coordinates": [ 98.9658116, 18.7958248 ] } },
{ "type": "Feature", "properties": { "source": "gg", "poi_id": "ChIJATKZMwA72jAResc1py5VeX0", "poi_name": "Agency DD Chiangmai", "category_raw": "real_estate_agency", "category_std": "personal_service_repair", "category_std_th": "บริการส่วนบุคคลและงานซ่อม", "category_sub": "real_estate_agency", "category_sub_th": "real_estate_agency", "lat": 18.7958248, "lon": 98.9658116, "place_id": "ChIJATKZMwA72jAResc1py5VeX0", "name": "Agency DD Chiangmai", "pri_type": "real_estate_agency", "types": "real_estate_agency,service,point_of_interest,establishment", "address": "ถนนนิมมานเหมินท์ Nimmanhaemin ตำบลสุเทพ อำเภอเมืองเชียงใหม่ เชียงใหม่ 50200", "query_lat": 18.795772885954225, "query_lon": 98.965701487216407 }, "geometry": { "type": "Point", "coordinates": [ 98.9658116, 18.7958248 ] } },
{ "type": "Feature", "properties": { "source": "gg", "poi_id": "ChIJU-cmfQA72jAReDNrO0AmacY", "poi_name": "ที่พัเชียงใหม่", "category_raw": "hotel", "category_std": "tourism_culture", "category_std_th": "ที่พัก การท่องเที่ยว และวัฒนธรรม", "category_sub": "hotel", "category_sub_th": "โรงแรม", "lat": 18.7958248, "lon": 98.9658116, "place_id": "ChIJU-cmfQA72jAReDNrO0AmacY", "name": "ที่พัเชียงใหม่", "pri_type": "hotel", "types": "hotel,lodging,point_of_interest,establishment", "address": "ถนนนิมมานเหมินท์ Nimmanhaemin ตำบลสุเทพ อำเภอเมืองเชียงใหม่ เชียงใหม่ 50200", "query_lat": 18.795772885954225, "query_lon": 98.965701487216407 }, "geometry": { "type": "Point", "coordinates": [ 98.9658116, 18.7958248 ] } },
{ "type": "Feature", "properties": { "source": "gg", "poi_id": "ChIJA4_RWgA72jARC1JtRxASlWU", "poi_name": "มหพล อพาร์ตเมนต์", "category_raw": "hotel", "category_std": "tourism_culture", "category_std_th": "ที่พัก การท่องเที่ยว และวัฒนธรรม", "category_sub": "hotel", "category_sub_th": "โรงแรม", "lat": 18.7958248, "lon": 98.9658116, "place_id": "ChIJA4_RWgA72jARC1JtRxASlWU", "name": "มหพล อพาร์ตเมนต์", "pri_type": "hotel", "types": "hotel,lodging,point_of_interest,establishment", "address": "QXW8+88F ถนนนิมมานเหมินท์ Nimmanhaemin ตำบลสุเทพ อำเภอเมืองเชียงใหม่ เชียงใหม่ 50200", "query_lat": 18.795772885954225, "query_lon": 98.965701487216407 }, "geometry": { "type": "Point", "coordinates": [ 98.9658116, 18.7958248 ] } },
{ "type": "Feature", "properties": { "source": "gg", "poi_id": "ChIJFfyBiBc72jARWXvfAg-qDwU", "poi_name": "ข้าวราดแกง เปิด 24 ชั่วโมง", "category_raw": "korean_restaurant", "category_std": "food_beverage", "category_std_th": "อาหารและเครื่องดื่ม", "category_sub": "korean_restaurant", "category_sub_th": "korean_restaurant", "lat": 18.7958248, "lon": 98.9658116, "place_id": "ChIJFfyBiBc72jARWXvfAg-qDwU", "name": "ข้าวราดแกง เปิด 24 ชั่วโมง", "pri_type": "korean_restaurant", "types": "korean_restaurant,restaurant,food,point_of_interest,establishment", "address": "Nimmanahaeminda RoadTambon Su Thep, Mueang Chiang Mai DistrictChiang Mai, Nimmanhaemin ตำบลสุเทพ อำเภอเมืองเชียงใหม่ เชียงใหม่ 50200", "query_lat": 18.795772885954225, "query_lon": 98.965701487216407 }, "geometry": { "type": "Point", "coordinates": [ 98.9658116, 18.7958248 ] } },
{ "type": "Feature", "properties": { "source": "gg", "poi_id": "ChIJq12JOrc72jARLcoCsgSNugc", "poi_name": "เนื้อสะเต๊ะใต้ต้นข่อย สาขานิมมาน", "category_raw": "butcher_shop", "category_std": "retail_commerce", "category_std_th": "การค้าปลีกและร้านค้า", "category_sub": "butcher_shop", "category_sub_th": "butcher_shop", "lat": 18.7958248, "lon": 98.9658116, "place_id": "ChIJq12JOrc72jARLcoCsgSNugc", "name": "เนื้อสะเต๊ะใต้ต้นข่อย สาขานิมมาน", "pri_type": "butcher_shop", "types": "butcher_shop,food_store,food,manufacturer,store,service,point_of_interest,establishment", "address": "QXW8+88F ถนนนิมมานเหมินท์ Nimmanhaemin ตำบลสุเทพ อำเภอเมืองเชียงใหม่ เชียงใหม่ 50200", "query_lat": 18.795772885954225, "query_lon": 98.965701487216407 }, "geometry": { "type": "Point", "coordinates": [ 98.9658116, 18.7958248 ] } },
{ "type": "Feature", "properties": { "source": "gg", "poi_id": "ChIJqxNj5FM72jARfG7yicS6Klc", "poi_name": "GoGoGaming", "category_raw": "video_arcade", "category_std": "sport_recreation", "category_std_th": "กีฬาและนันทนาการ", "category_sub": "video_arcade", "category_sub_th": "ศูนย์เกม", "lat": 18.7958248, "lon": 98.9658116, "place_id": "ChIJqxNj5FM72jARfG7yicS6Klc", "name": "GoGoGaming", "pri_type": "video_arcade", "types": "video_arcade,point_of_interest,establishment", "address": "Nimman, ถนนนิมมานเหมินท์ Nimmanhaemin ตำบลสุเทพ อำเภอเมืองเชียงใหม่ เชียงใหม่ 50000", "query_lat": 18.795772885954225, "query_lon": 98.965701487216407 }, "geometry": { "type": "Point", "coordinates": [ 98.9658116, 18.7958248 ] } },
{ "type": "Feature", "properties": { "source": "gg", "poi_id": "ChIJa_EaTwA72jARQAGT56AJAzc", "poi_name": "Stay in Style at Nimman R306B", "category_raw": "lodging", "category_std": "tourism_culture", "category_std_th": "ที่พัก การท่องเที่ยว และวัฒนธรรม", "category_sub": "lodging", "category_sub_th": "ที่พัก", "lat": 18.7958248, "lon": 98.9658116, "place_id": "ChIJa_EaTwA72jARQAGT56AJAzc", "name": "Stay in Style at Nimman R306B", "pri_type": "lodging", "types": "lodging,point_of_interest,establishment", "address": "26 Tambon Su Thep, Amphoe Mueang Chiang Mai, Chang Wat Chiang Mai 50200, Thailan26, Room 306B, ถนนนิมมานเหมินท์ Nimmanhaemin ตำบลสุเทพ อำเภอเมืองเชียงใหม่ เชี", "query_lat": 18.795772885954225, "query_lon": 98.965701487216407 }, "geometry": { "type": "Point", "coordinates": [ 98.9658116, 18.7958248 ] } },
{ "type": "Feature", "properties": { "source": "gg", "poi_id": "ChIJuVMIHWM62jAR5A4gMEiO68M", "poi_name": "MS&MA HOME next to oldtown", "category_raw": "lodging", "category_std": "tourism_culture", "category_std_th": "ที่พัก การท่องเที่ยว และวัฒนธรรม", "category_sub": "lodging", "category_sub_th": "ที่พัก", "lat": 18.7958145, "lon": 98.9658203, "place_id": "ChIJuVMIHWM62jAR5A4gMEiO68M", "name": "MS&MA HOME next to oldtown", "pri_type": "lodging", "types": "lodging,point_of_interest,establishment", "address": "Nimmanhaemin ตำบลสุเทพ อำเภอเมืองเชียงใหม่ เชียงใหม่ 50200 ประเทศไทย", "query_lat": 18.795772885954225, "query_lon": 98.965701487216407 }, "geometry": { "type": "Point", "coordinates": [ 98.9658203, 18.7958145 ] } },
{ "type": "Feature", "properties": { "source": "gg", "poi_id": "ChIJy9y7CAA72jARS3yIOJihzgQ", "poi_name": "Mellow Nest", "category_raw": "coffee_shop", "category_std": "food_beverage", "category_std_th": "อาหารและเครื่องดื่ม", "category_sub": "coffee_shop", "category_sub_th": "ร้านกาแฟ", "lat": 18.7958395, "lon": 98.9658134, "place_id": "ChIJy9y7CAA72jARS3yIOJihzgQ", "name": "Mellow Nest", "pri_type": "coffee_shop", "types": "coffee_shop,cafe,food_store,food,store,point_of_interest,establishment", "address": "QXW8+88P ถนนนิมมานเหมินท์ Nimmanhaemin ตำบลสุเทพ อำเภอเมืองเชียงใหม่ เชียงใหม่ 50200", "query_lat": 18.795772885954225, "query_lon": 98.965701487216407 }, "geometry": { "type": "Point", "coordinates": [ 98.9658134, 18.7958395 ] } },
{ "type": "Feature", "properties": { "source": "gg", "poi_id": "ChIJDSdJyXo72jARrfPGkWOHcDE", "poi_name": "S&A Beverages Nimman", "category_raw": "bar", "category_std": "food_beverage", "category_std_th": "อาหารและเครื่องดื่ม", "category_sub": "bar", "category_sub_th": "บาร์", "lat": 18.7962361, "lon": 98.9658751, "place_id": "ChIJDSdJyXo72jARrfPGkWOHcDE", "name": "S&A Beverages Nimman", "pri_type": "bar", "types": "bar,point_of_interest,establishment", "address": "8/11 นิมมานเหมินทร์ ซ. 8 Nimmanhaemin ตำบลสุเทพ อำเภอเมืองเชียงใหม่ เชียงใหม่ 50200", "query_lat": 18.796255740546712, "query_lon": 98.965794135077829 }, "geometry": { "type": "Point", "coordinates": [ 98.9658751, 18.7962361 ] } },
{ "type": "Feature", "properties": { "source": "gg", "poi_id": "ChIJ2yOKAmM62jARxBcNg2eRnlU", "poi_name": "Studio at middle of Nimman", "category_raw": "lodging", "category_std": "tourism_culture", "category_std_th": "ที่พัก การท่องเที่ยว และวัฒนธรรม", "category_sub": "lodging", "category_sub_th": "ที่พัก", "lat": 18.7961636, "lon": 98.9658738, "place_id": "ChIJ2yOKAmM62jARxBcNg2eRnlU", "name": "Studio at middle of Nimman", "pri_type": "lodging", "types": "lodging,point_of_interest,establishment", "address": "Nimmanhaemin ตำบลสุเทพ อำเภอเมืองเชียงใหม่ เชียงใหม่ 50200 ประเทศไทย", "query_lat": 18.796255740546712, "query_lon": 98.965794135077829 }, "geometry": { "type": "Point", "coordinates": [ 98.9658738, 18.7961636 ] } },
{ "type": "Feature", "properties": { "source": "gg", "poi_id": "ChIJ4Vkg_mI62jARt2iooxOh7XE", "poi_name": "Subway - Sandwich Restaurants Burger ร้านอาหาร นิมมาน", "category_raw": "sandwich_shop", "category_std": "other", "category_std_th": "อื่น ๆ", "category_sub": "sandwich_shop", "category_sub_th": "sandwich_shop", "lat": 18.7963814, "lon": 98.9659491, "place_id": "ChIJ4Vkg_mI62jARt2iooxOh7XE", "name": "Subway - Sandwich Restaurants Burger ร้านอาหาร นิมมาน", "pri_type": "sandwich_shop", "types": "sandwich_shop,food_court,hamburger_restaurant,health_food_store,coffee_shop,cafe,american_restaurant,food_store,store,health,restaurant,food,point_of_interest,establishment", "address": "30 ถนนนิมมานเหมินท์ Nimmanhaemin ตำบลสุเทพ อำเภอเมืองเชียงใหม่ เชียงใหม่ 50200", "query_lat": 18.796255740546712, "query_lon": 98.965794135077829 }, "geometry": { "type": "Point", "coordinates": [ 98.965949099999989, 18.7963814 ] } },
{ "type": "Feature", "properties": { "source": "gg", "poi_id": "ChIJUzWEW7M72jARg2pjFU-3GTs", "poi_name": "บริษัท​โอ​ชาโน(​ไทยแลนด์)​จำกัด", "category_raw": "service", "category_std": "personal_service_repair", "category_std_th": "บริการส่วนบุคคลและงานซ่อม", "category_sub": "service", "category_sub_th": "service", "lat": 18.7960644, "lon": 98.9659083, "place_id": "ChIJUzWEW7M72jARg2pjFU-3GTs", "name": "บริษัท​โอ​ชาโน(​ไทยแลนด์)​จำกัด", "pri_type": "service", "types": "point_of_interest,service,establishment", "address": "ซอย​ 19​ มินต์ ถนนนิมมานเหมินท์ Nimmanhaemin ตำบลช้างคลาน เมือง เชียงใหม่ 50000", "query_lat": 18.796255740546712, "query_lon": 98.965794135077829 }, "geometry": { "type": "Point", "coordinates": [ 98.9659083, 18.7960644 ] } },
{ "type": "Feature", "properties": { "source": "gg", "poi_id": "ChIJzT71bZs72jAR0q_YwyGD8d0", "poi_name": "ฮาน่า อายแวร์", "category_raw": "store", "category_std": "retail_commerce", "category_std_th": "การค้าปลีกและร้านค้า", "category_sub": "store", "category_sub_th": "ร้านค้าทั่วไป", "lat": 18.7960644, "lon": 98.9659083, "place_id": "ChIJzT71bZs72jAR0q_YwyGD8d0", "name": "ฮาน่า อายแวร์", "pri_type": "store", "types": "store,point_of_interest,establishment", "address": "เลขที่ 110 ห้อง ซี108 นิมมาน ซอย 1 ถนน นิมมานเหมินท์ ถนน สุเทพ Nimmanhaemin สุเทพ อำเภอเมืองเชียงใหม่ เชีย", "query_lat": 18.796255740546712, "query_lon": 98.965794135077829 }, "geometry": { "type": "Point", "coordinates": [ 98.9659083, 18.7960644 ] } },
{ "type": "Feature", "properties": { "source": "gg", "poi_id": "ChIJy2CvgYI72jARwMwZEVDkxT0", "poi_name": "กษมา", "category_raw": "store", "category_std": "retail_commerce", "category_std_th": "การค้าปลีกและร้านค้า", "category_sub": "store", "category_sub_th": "ร้านค้าทั่วไป", "lat": 18.7960644, "lon": 98.9659083, "place_id": "ChIJy2CvgYI72jARwMwZEVDkxT0", "name": "กษมา", "pri_type": "store", "types": "store,point_of_interest,establishment", "address": "เลขที่ 8/1 ถนนนิมมานเหมินท์ Nimmanhaemin ตำบลสุเทพ อำเภอเมืองเชียงใหม่ เชียงใหม่ 50200", "query_lat": 18.796255740546712, "query_lon": 98.965794135077829 }, "geometry": { "type": "Point", "coordinates": [ 98.9659083, 18.7960644 ] } },
{ "type": "Feature", "properties": { "source": "gg", "poi_id": "ChIJZzV9LTE72jARyp4369_kXNg", "poi_name": "Chiangmai hasfarm", "category_raw": "corporate_office", "category_std": "office_professional", "category_std_th": "สำนักงานและบริการวิชาชีพ", "category_sub": "corporate_office", "category_sub_th": "สำนักงานบริษัท", "lat": 18.7960644, "lon": 98.9659083, "place_id": "ChIJZzV9LTE72jARyp4369_kXNg", "name": "Chiangmai hasfarm", "pri_type": "corporate_office", "types": "corporate_office,point_of_interest,establishment", "address": "19 ถนนนิมมานเหมินท์ Nimmanhaemin ตำบลสุเทพ อำเภอเมืองเชียงใหม่ เชียงใหม่ 50200", "query_lat": 18.796255740546712, "query_lon": 98.965794135077829 }, "geometry": { "type": "Point", "coordinates": [ 98.9659083, 18.7960644 ] } },
{ "type": "Feature", "properties": { "source": "gg", "poi_id": "ChIJ-6eLHxE72jARa7VYvtQSRfY", "poi_name": "ข้าวราดแกงฟลูทาม นิมมาน ซอย 8", "category_raw": "restaurant", "category_std": "food_beverage", "category_std_th": "อาหารและเครื่องดื่ม", "category_sub": "restaurant", "category_sub_th": "ร้านอาหาร", "lat": 18.7965767, "lon": 98.9660119, "place_id": "ChIJ-6eLHxE72jARa7VYvtQSRfY", "name": "ข้าวราดแกงฟลูทาม นิมมาน ซอย 8", "pri_type": "restaurant", "types": "restaurant,food,point_of_interest,establishment", "address": "28 ถนนนิมมานเหมินทร์ ต.สุเทพ อ.เมือง สุเทพ Nimmanhaemin ตำบลสุเทพ เมือง เชียงใหม่ 50300", "query_lat": 18.796637094660781, "query_lon": 98.965866363827871 }, "geometry": { "type": "Point", "coordinates": [ 98.9660119, 18.7965767 ] } },
{ "type": "Feature", "properties": { "source": "gg", "poi_id": "ChIJ5Z7N_2I62jARCrzFYvcvtnk", "poi_name": "ข้าวมันไก่ เก่งโอชา", "category_raw": "restaurant", "category_std": "food_beverage", "category_std_th": "อาหารและเครื่องดื่ม", "category_sub": "restaurant", "category_sub_th": "ร้านอาหาร", "lat": 18.7965451, "lon": 98.9659877, "place_id": "ChIJ5Z7N_2I62jARCrzFYvcvtnk", "name": "ข้าวมันไก่ เก่งโอชา", "pri_type": "restaurant", "types": "restaurant,food,point_of_interest,establishment", "address": "QXW8+J99 ถนนนิมมานเหมินท์ Nimmanhaemin ตำบลสุเทพ อำเภอเมืองเชียงใหม่ เชียงใหม่ 50200", "query_lat": 18.796637094660781, "query_lon": 98.965866363827871 }, "geometry": { "type": "Point", "coordinates": [ 98.9659877, 18.7965451 ] } },
{ "type": "Feature", "properties": { "source": "gg", "poi_id": "ChIJM9eX_2I62jARndHX6PwEr7c", "poi_name": "ไก่ทอดใบมะกรูด", "category_raw": "restaurant", "category_std": "food_beverage", "category_std_th": "อาหารและเครื่องดื่ม", "category_sub": "restaurant", "category_sub_th": "ร้านอาหาร", "lat": 18.7966122, "lon": 98.9660315, "place_id": "ChIJM9eX_2I62jARndHX6PwEr7c", "name": "ไก่ทอดใบมะกรูด", "pri_type": "restaurant", "types": "restaurant,food,point_of_interest,establishment", "address": "ถนนนิมมานเหมินท์ Nimmanhaemin ตำบลสุเทพ อำเภอเมืองเชียงใหม่ เชียงใหม่ 50200", "query_lat": 18.796637094660781, "query_lon": 98.965866363827871 }, "geometry": { "type": "Point", "coordinates": [ 98.9660315, 18.7966122 ] } },
{ "type": "Feature", "properties": { "source": "gg", "poi_id": "ChIJUU4TRAA72jARHItfW_PrWdo", "poi_name": "ร้านเมาทอด Madfried", "category_raw": "restaurant", "category_std": "food_beverage", "category_std_th": "อาหารและเครื่องดื่ม", "category_sub": "restaurant", "category_sub_th": "ร้านอาหาร", "lat": 18.7965384, "lon": 98.9659894, "place_id": "ChIJUU4TRAA72jARHItfW_PrWdo", "name": "ร้านเมาทอด Madfried", "pri_type": "restaurant", "types": "restaurant,food,point_of_interest,establishment", "address": "QXW8+J99 ถนนนิมมานเหมินท์ Nimmanhaemin ตำบลสุเทพ อำเภอเมืองเชียงใหม่ เชียงใหม่ 50200", "query_lat": 18.796637094660781, "query_lon": 98.965866363827871 }, "geometry": { "type": "Point", "coordinates": [ 98.9659894, 18.7965384 ] } },
{ "type": "Feature", "properties": { "source": "gg", "poi_id": "ChIJXxpdqq472jARm7tjaipPqLo", "poi_name": "ปาท่องโก๋นิมมาน", "category_raw": "breakfast_restaurant", "category_std": "food_beverage", "category_std_th": "อาหารและเครื่องดื่ม", "category_sub": "breakfast_restaurant", "category_sub_th": "breakfast_restaurant", "lat": 18.7965712, "lon": 98.9660195, "place_id": "ChIJXxpdqq472jARm7tjaipPqLo", "name": "ปาท่องโก๋นิมมาน", "pri_type": "breakfast_restaurant", "types": "breakfast_restaurant,restaurant,food,point_of_interest,establishment", "address": "115a ถนนนิมมานเหมินท์ Nimmanhaemin ตำบลสุเทพ อำเภอเมืองเชียงใหม่ เชียงใหม่ 50200", "query_lat": 18.796637094660781, "query_lon": 98.965866363827871 }, "geometry": { "type": "Point", "coordinates": [ 98.9660195, 18.7965712 ] } },
{ "type": "Feature", "properties": { "source": "gg", "poi_id": "ChIJ79Ia6h872jARO3Tm-nd9EU4", "poi_name": "Cozy Massage and Spa Nimman 15 Chiangmai", "category_raw": "massage_spa", "category_std": "personal_service_repair", "category_std_th": "บริการส่วนบุคคลและงานซ่อม", "category_sub": "massage_spa", "category_sub_th": "สปาและร้านนวด", "lat": 18.7959617, "lon": 98.9659367, "place_id": "ChIJ79Ia6h872jARO3Tm-nd9EU4", "name": "Cozy Massage and Spa Nimman 15 Chiangmai", "pri_type": "massage_spa", "types": "massage_spa,spa,massage,service,point_of_interest,establishment", "address": "2, 3 ถนนนิมมานเหมินท์ Nimmanhaemin ตำบลสุเทพ อำเภอเมืองเชียงใหม่ เชียงใหม่ 50200", "query_lat": 18.795869166959498, "query_lon": 98.966023159352517 }, "geometry": { "type": "Point", "coordinates": [ 98.9659367, 18.7959617 ] } },
{ "type": "Feature", "properties": { "source": "gg", "poi_id": "ChIJPWsDvUw72jARsQe7Nqg741g", "poi_name": "STRIDE", "category_raw": "coffee_shop", "category_std": "food_beverage", "category_std_th": "อาหารและเครื่องดื่ม", "category_sub": "coffee_shop", "category_sub_th": "ร้านกาแฟ", "lat": 18.7959979, "lon": 98.9659568, "place_id": "ChIJPWsDvUw72jARsQe7Nqg741g", "name": "STRIDE", "pri_type": "coffee_shop", "types": "coffee_shop,cafe,food_store,food,store,point_of_interest,establishment", "address": "2, 2 Soi 15 Nimmanhaemin ตำบลสุเทพ muang, เชียงใหม่ 50200", "query_lat": 18.795869166959498, "query_lon": 98.966023159352517 }, "geometry": { "type": "Point", "coordinates": [ 98.9659568, 18.7959979 ] } },
{ "type": "Feature", "properties": { "source": "gg", "poi_id": "ChIJ4Z03HWM62jAR6bPkc4GXwnk", "poi_name": "Boonyamas mansion", "category_raw": "lodging", "category_std": "tourism_culture", "category_std_th": "ที่พัก การท่องเที่ยว และวัฒนธรรม", "category_sub": "lodging", "category_sub_th": "ที่พัก", "lat": 18.7959461, "lon": 98.9658432, "place_id": "ChIJ4Z03HWM62jAR6bPkc4GXwnk", "name": "Boonyamas mansion", "pri_type": "lodging", "types": "lodging,point_of_interest,establishment", "address": "Nimmanhaemin ตำบลสุเทพ อำเภอเมืองเชียงใหม่ เชียงใหม่ 50200 ประเทศไทย", "query_lat": 18.795869166959498, "query_lon": 98.966023159352517 }, "geometry": { "type": "Point", "coordinates": [ 98.9658432, 18.7959461 ] } },
{ "type": "Feature", "properties": { "source": "gg", "poi_id": "ChIJURMqn9o72jARVvvcp5Ctpl0", "poi_name": "Reverse Osmosis Water Machine", "category_raw": "", "category_std": "other", "category_std_th": "อื่น ๆ", "category_sub": "", "category_sub_th": "", "lat": 18.7964001, "lon": 98.9661027, "place_id": "ChIJURMqn9o72jARVvvcp5Ctpl0", "name": "Reverse Osmosis Water Machine", "pri_type": null, "types": "point_of_interest,establishment", "address": "15 ถนนนิมมานเหมินท์ Nimmanhaemin ตำบลสุเทพ อำเภอเมืองเชียงใหม่ เชียงใหม่ 50200", "query_lat": 18.796365052667252, "query_lon": 98.966117272562002 }, "geometry": { "type": "Point", "coordinates": [ 98.9661027, 18.7964001 ] } },
{ "type": "Feature", "properties": { "source": "gg", "poi_id": "ChIJ2TxpWRw72jARfevDErL8qoM", "poi_name": "Biolab Weed Shop – Nimman | Cannabis Dispensary, Snus & Social Club", "category_raw": "store", "category_std": "retail_commerce", "category_std_th": "การค้าปลีกและร้านค้า", "category_sub": "store", "category_sub_th": "ร้านค้าทั่วไป", "lat": 18.7963217, "lon": 98.9660516, "place_id": "ChIJ2TxpWRw72jARfevDErL8qoM", "name": "Biolab Weed Shop – Nimman | Cannabis Dispensary, Snus & Social Club", "pri_type": "store", "types": "shipping_service,association_or_organization,store,point_of_interest,service,establishment", "address": "1/1 ซ.15.ถ.นิมมานเหมินร์ ต.สุเทพ อ.เมือง จ.เชียงใหม่ 50200 ห้องR1 Nimmanhaemin ตำบลสุเทพ เมือง เชียงใหม่ 50200", "query_lat": 18.796365052667252, "query_lon": 98.966117272562002 }, "geometry": { "type": "Point", "coordinates": [ 98.9660516, 18.7963217 ] } },
{ "type": "Feature", "properties": { "source": "gg", "poi_id": "ChIJLS1z_mI62jARIgdzF3xH5i4", "poi_name": "N Chiangmai - Suite", "category_raw": "lodging", "category_std": "tourism_culture", "category_std_th": "ที่พัก การท่องเที่ยว และวัฒนธรรม", "category_sub": "lodging", "category_sub_th": "ที่พัก", "lat": 18.7963791, "lon": 98.9660263, "place_id": "ChIJLS1z_mI62jARIgdzF3xH5i4", "name": "N Chiangmai - Suite", "pri_type": "lodging", "types": "lodging,point_of_interest,establishment", "address": "Nimmanhaemin ตำบลสุเทพ อำเภอเมืองเชียงใหม่ เชียงใหม่ 50200 ประเทศไทย", "query_lat": 18.796365052667252, "query_lon": 98.966117272562002 }, "geometry": { "type": "Point", "coordinates": [ 98.9660263, 18.7963791 ] } },
{ "type": "Feature", "properties": { "source": "gg", "poi_id": "ChIJbxqE_2I62jARWdlQEgJKjR8", "poi_name": "Chill Chill at nimman Rm 402", "category_raw": "lodging", "category_std": "tourism_culture", "category_std_th": "ที่พัก การท่องเที่ยว และวัฒนธรรม", "category_sub": "lodging", "category_sub_th": "ที่พัก", "lat": 18.7966862, "lon": 98.9660874, "place_id": "ChIJbxqE_2I62jARWdlQEgJKjR8", "name": "Chill Chill at nimman Rm 402", "pri_type": "lodging", "types": "lodging,point_of_interest,establishment", "address": "Nimmanhaemin ตำบลสุเทพ อำเภอเมืองเชียงใหม่ เชียงใหม่ 50200 ประเทศไทย", "query_lat": 18.796703226815517, "query_lon": 98.966149205981878 }, "geometry": { "type": "Point", "coordinates": [ 98.9660874, 18.7966862 ] } },
{ "type": "Feature", "properties": { "source": "gg", "poi_id": "ChIJk6aG_2I62jARmczdPldUrV0", "poi_name": "Chill Chill at nimman Rm 402 - Deluxe Studio", "category_raw": "lodging", "category_std": "tourism_culture", "category_std_th": "ที่พัก การท่องเที่ยว และวัฒนธรรม", "category_sub": "lodging", "category_sub_th": "ที่พัก", "lat": 18.79669, "lon": 98.9660874, "place_id": "ChIJk6aG_2I62jARmczdPldUrV0", "name": "Chill Chill at nimman Rm 402 - Deluxe Studio", "pri_type": "lodging", "types": "lodging,point_of_interest,establishment", "address": "Nimmanhaemin ตำบลสุเทพ อำเภอเมืองเชียงใหม่ เชียงใหม่ 50200 ประเทศไทย", "query_lat": 18.796703226815517, "query_lon": 98.966149205981878 }, "geometry": { "type": "Point", "coordinates": [ 98.9660874, 18.79669 ] } },
{ "type": "Feature", "properties": { "source": "gg", "poi_id": "ChIJcQuJVWI62jARQ9Pvdrh7dtQ", "poi_name": "Sisme@Nimman Hillside2 1008", "category_raw": "lodging", "category_std": "tourism_culture", "category_std_th": "ที่พัก การท่องเที่ยว และวัฒนธรรม", "category_sub": "lodging", "category_sub_th": "ที่พัก", "lat": 18.7967205, "lon": 98.9661713, "place_id": "ChIJcQuJVWI62jARQ9Pvdrh7dtQ", "name": "Sisme@Nimman Hillside2 1008", "pri_type": "lodging", "types": "lodging,point_of_interest,establishment", "address": "Nimmanhaemin ตำบลสุเทพ อำเภอเมืองเชียงใหม่ เชียงใหม่ 50200 ประเทศไทย", "query_lat": 18.796703226815517, "query_lon": 98.966149205981878 }, "geometry": { "type": "Point", "coordinates": [ 98.966171300000013, 18.7967205 ] } },
{ "type": "Feature", "properties": { "source": "gg", "poi_id": "ChIJ74p8VWI62jARDCAFnlCTfcM", "poi_name": "Nimman Mountain View - One-Bedroom Apartment", "category_raw": "lodging", "category_std": "tourism_culture", "category_std_th": "ที่พัก การท่องเที่ยว และวัฒนธรรม", "category_sub": "lodging", "category_sub_th": "ที่พัก", "lat": 18.79673, "lon": 98.9660797, "place_id": "ChIJ74p8VWI62jARDCAFnlCTfcM", "name": "Nimman Mountain View - One-Bedroom Apartment", "pri_type": "lodging", "types": "lodging,point_of_interest,establishment", "address": "Nimmanhaemin ตำบลสุเทพ อำเภอเมืองเชียงใหม่ เชียงใหม่ 50200 ประเทศไทย", "query_lat": 18.796703226815517, "query_lon": 98.966149205981878 }, "geometry": { "type": "Point", "coordinates": [ 98.9660797, 18.79673 ] } },
{ "type": "Feature", "properties": { "source": "gg", "poi_id": "ChIJeSEnf-o72jARdBeKD_jYH98", "poi_name": "ร้านมณีจันทร์ อัญมณี เชียงใหม่", "category_raw": "jewelry_store", "category_std": "retail_commerce", "category_std_th": "การค้าปลีกและร้านค้า", "category_sub": "jewelry_store", "category_sub_th": "jewelry_store", "lat": 18.7966356, "lon": 98.9662108, "place_id": "ChIJeSEnf-o72jARdBeKD_jYH98", "name": "ร้านมณีจันทร์ อัญมณี เชียงใหม่", "pri_type": "jewelry_store", "types": "jewelry_store,store,point_of_interest,establishment", "address": "เลขที่ 1/8 ถนนนิมมานเหมินท์ Nimmanhaemin ตำบลสุเทพ อำเภอเมืองเชียงใหม่ เชียงใหม่ 50200", "query_lat": 18.796703226815517, "query_lon": 98.966149205981878 }, "geometry": { "type": "Point", "coordinates": [ 98.9662108, 18.7966356 ] } },
{ "type": "Feature", "properties": { "source": "gg", "poi_id": "ChIJeciWVWI62jARjixNbqM2XWs", "poi_name": "Private room in the center of Nimman", "category_raw": "lodging", "category_std": "tourism_culture", "category_std_th": "ที่พัก การท่องเที่ยว และวัฒนธรรม", "category_sub": "lodging", "category_sub_th": "ที่พัก", "lat": 18.7967796, "lon": 98.9661713, "place_id": "ChIJeciWVWI62jARjixNbqM2XWs", "name": "Private room in the center of Nimman", "pri_type": "lodging", "types": "lodging,point_of_interest,establishment", "address": "Nimmanhaemin ตำบลสุเทพ อำเภอเมืองเชียงใหม่ เชียงใหม่ 50200 ประเทศไทย", "query_lat": 18.796703226815517, "query_lon": 98.966149205981878 }, "geometry": { "type": "Point", "coordinates": [ 98.966171300000013, 18.7967796 ] } },
{ "type": "Feature", "properties": { "source": "gg", "poi_id": "ChIJV-GYVWI62jARrIBdirUsYCc", "poi_name": "Budget Studio on Nimman Road", "category_raw": "lodging", "category_std": "tourism_culture", "category_std_th": "ที่พัก การท่องเที่ยว และวัฒนธรรม", "category_sub": "lodging", "category_sub_th": "ที่พัก", "lat": 18.7967911, "lon": 98.9661408, "place_id": "ChIJV-GYVWI62jARrIBdirUsYCc", "name": "Budget Studio on Nimman Road", "pri_type": "lodging", "types": "lodging,point_of_interest,establishment", "address": "Nimmanhaemin ตำบลสุเทพ อำเภอเมืองเชียงใหม่ เชียงใหม่ 50200 ประเทศไทย", "query_lat": 18.796703226815517, "query_lon": 98.966149205981878 }, "geometry": { "type": "Point", "coordinates": [ 98.9661408, 18.7967911 ] } },
{ "type": "Feature", "properties": { "source": "gg", "poi_id": "ChIJJTUX_2I62jARMT_TlB-7eNY", "poi_name": "Nimman Nails & Wax Branch2", "category_raw": "nail_salon", "category_std": "personal_service_repair", "category_std_th": "บริการส่วนบุคคลและงานซ่อม", "category_sub": "nail_salon", "category_sub_th": "nail_salon", "lat": 18.7965972, "lon": 98.9661963, "place_id": "ChIJJTUX_2I62jARMT_TlB-7eNY", "name": "Nimman Nails & Wax Branch2", "pri_type": "nail_salon", "types": "nail_salon,beauty_salon,hair_care,service,point_of_interest,establishment", "address": "51 Nimmanhaeminda Rd Lane 13, ซอย หมู่บ้านสุเทพ Nimmanhaemin ตำบลสุเทพ อำเภอเมืองเชียงใหม่ เชียงใหม่ 50200", "query_lat": 18.796703226815517, "query_lon": 98.966149205981878 }, "geometry": { "type": "Point", "coordinates": [ 98.9661963, 18.7965972 ] } },
{ "type": "Feature", "properties": { "source": "gg", "poi_id": "ChIJQwNyyvE72jARG-2CJS13lE4", "poi_name": "WeeDs Bloom CNX", "category_raw": "store", "category_std": "retail_commerce", "category_std_th": "การค้าปลีกและร้านค้า", "category_sub": "store", "category_sub_th": "ร้านค้าทั่วไป", "lat": 18.7971243, "lon": 98.9662349, "place_id": "ChIJQwNyyvE72jARG-2CJS13lE4", "name": "WeeDs Bloom CNX", "pri_type": "store", "types": "store,point_of_interest,establishment", "address": "เยื้องปาก ถนน นิมมานเหมินท์ ซอย 11 Nimmanhaemin ตำบลสุเทพ อำเภอเมืองเชียงใหม่ เชียงใหม่ 50200", "query_lat": 18.797116298080301, "query_lon": 98.966195040529129 }, "geometry": { "type": "Point", "coordinates": [ 98.966234899999989, 18.7971243 ] } },
{ "type": "Feature", "properties": { "source": "gg", "poi_id": "ChIJcbEC0Row2jARddaHFr2y3Io", "poi_name": "Lapas massage", "category_raw": "massage_spa", "category_std": "personal_service_repair", "category_std_th": "บริการส่วนบุคคลและงานซ่อม", "category_sub": "massage_spa", "category_sub_th": "สปาและร้านนวด", "lat": 18.7970564, "lon": 98.9662331, "place_id": "ChIJcbEC0Row2jARddaHFr2y3Io", "name": "Lapas massage", "pri_type": "massage_spa", "types": "massage_spa,massage,spa,point_of_interest,service,establishment", "address": "24 11 ถนนนิมมานเหมินท์ Nimmanhaemin ตำบลสุเทพ อำเภอเมืองเชียงใหม่ เชียงใหม่ 50200", "query_lat": 18.797116298080301, "query_lon": 98.966195040529129 }, "geometry": { "type": "Point", "coordinates": [ 98.9662331, 18.7970564 ] } },
{ "type": "Feature", "properties": { "source": "gg", "poi_id": "ChIJoVMHVGI62jARdohy4HtsiJw", "poi_name": "Little Seoul - Double Room", "category_raw": "lodging", "category_std": "tourism_culture", "category_std_th": "ที่พัก การท่องเที่ยว และวัฒนธรรม", "category_sub": "lodging", "category_sub_th": "ที่พัก", "lat": 18.7970695, "lon": 98.9662628, "place_id": "ChIJoVMHVGI62jARdohy4HtsiJw", "name": "Little Seoul - Double Room", "pri_type": "lodging", "types": "lodging,point_of_interest,establishment", "address": "Nimmanhaemin ตำบลสุเทพ อำเภอเมืองเชียงใหม่ เชียงใหม่ 50200 ประเทศไทย", "query_lat": 18.797116298080301, "query_lon": 98.966195040529129 }, "geometry": { "type": "Point", "coordinates": [ 98.9662628, 18.7970695 ] } },
{ "type": "Feature", "properties": { "source": "gg", "poi_id": "ChIJDZBZUWI62jARAY-Qp_5ePnA", "poi_name": "soi khang", "category_raw": "restaurant", "category_std": "food_beverage", "category_std_th": "อาหารและเครื่องดื่ม", "category_sub": "restaurant", "category_sub_th": "ร้านอาหาร", "lat": 18.7970863, "lon": 98.9662779, "place_id": "ChIJDZBZUWI62jARAY-Qp_5ePnA", "name": "soi khang", "pri_type": "restaurant", "types": "restaurant,food,point_of_interest,establishment", "address": "ถนนนิมมานเหมินท์ - ถนน นิมมานเหมินท์ ซอย 11 Nimmanhaemin ตำบลสุเทพ อำเภอเมืองเชียงใหม่ เชียงใหม่ 50200", "query_lat": 18.797116298080301, "query_lon": 98.966195040529129 }, "geometry": { "type": "Point", "coordinates": [ 98.9662779, 18.7970863 ] } },
{ "type": "Feature", "properties": { "source": "gg", "poi_id": "ChIJkT7kAZI72jARNUL_17Pk3Dw", "poi_name": "yesterday cafe'", "category_raw": "cafe", "category_std": "food_beverage", "category_std_th": "อาหารและเครื่องดื่ม", "category_sub": "cafe", "category_sub_th": "ร้านกาแฟ", "lat": 18.7969984, "lon": 98.9661932, "place_id": "ChIJkT7kAZI72jARNUL_17Pk3Dw", "name": "yesterday cafe'", "pri_type": "cafe", "types": "cafe,coffee_shop,food_store,store,food,point_of_interest,establishment", "address": "24 12 ถนนนิมมานเหมินท์ Nimmanhaemin ตำบลสุเทพ อำเภอเมืองเชียงใหม่ เชียงใหม่ 50200", "query_lat": 18.797116298080301, "query_lon": 98.966195040529129 }, "geometry": { "type": "Point", "coordinates": [ 98.9661932, 18.7969984 ] } },
{ "type": "Feature", "properties": { "source": "gg", "poi_id": "ChIJewhrBkE72jARq1EpWSN8BeQ", "poi_name": "Rich Mellow", "category_raw": "coffee_shop", "category_std": "food_beverage", "category_std_th": "อาหารและเครื่องดื่ม", "category_sub": "coffee_shop", "category_sub_th": "ร้านกาแฟ", "lat": 18.7970859, "lon": 98.9662864, "place_id": "ChIJewhrBkE72jARq1EpWSN8BeQ", "name": "Rich Mellow", "pri_type": "coffee_shop", "types": "coffee_shop,cafe,food_store,store,food,point_of_interest,establishment", "address": "24/6-24/7 ถนนนิมมานเหมินท์ Nimmanhaemin ตำบลสุเทพ เมือง เชียงใหม่ 50200", "query_lat": 18.797116298080301, "query_lon": 98.966195040529129 }, "geometry": { "type": "Point", "coordinates": [ 98.9662864, 18.7970859 ] } },
{ "type": "Feature", "properties": { "source": "gg", "poi_id": "ChIJJZHgU2I62jARd3BMMYBCdGM", "poi_name": "3 Bedrooms 2 showers 1 toilet on nimman", "category_raw": "lodging", "category_std": "tourism_culture", "category_std_th": "ที่พัก การท่องเที่ยว และวัฒนธรรม", "category_sub": "lodging", "category_sub_th": "ที่พัก", "lat": 18.7971592, "lon": 98.9662705, "place_id": "ChIJJZHgU2I62jARd3BMMYBCdGM", "name": "3 Bedrooms 2 showers 1 toilet on nimman", "pri_type": "lodging", "types": "lodging,point_of_interest,establishment", "address": "Nimmanhaemin ตำบลสุเทพ อำเภอเมืองเชียงใหม่ เชียงใหม่ 50200 ประเทศไทย", "query_lat": 18.797116298080301, "query_lon": 98.966195040529129 }, "geometry": { "type": "Point", "coordinates": [ 98.9662705, 18.7971592 ] } },
{ "type": "Feature", "properties": { "source": "gg", "poi_id": "ChIJSY84VGI62jAREC0IyTz2CqY", "poi_name": "Private Studio on Nimmanhemin road by Raphee", "category_raw": "lodging", "category_std": "tourism_culture", "category_std_th": "ที่พัก การท่องเที่ยว และวัฒนธรรม", "category_sub": "lodging", "category_sub_th": "ที่พัก", "lat": 18.7969493, "lon": 98.9662018, "place_id": "ChIJSY84VGI62jAREC0IyTz2CqY", "name": "Private Studio on Nimmanhemin road by Raphee", "pri_type": "lodging", "types": "lodging,point_of_interest,establishment", "address": "Nimmanhaemin ตำบลสุเทพ อำเภอเมืองเชียงใหม่ เชียงใหม่ 50200 ประเทศไทย", "query_lat": 18.797116298080301, "query_lon": 98.966195040529129 }, "geometry": { "type": "Point", "coordinates": [ 98.9662018, 18.7969493 ] } },
{ "type": "Feature", "properties": { "source": "gg", "poi_id": "ChIJ8VtRVGI62jARFQTUP99A-rc", "poi_name": "Luxury Private Travel @ Nimman", "category_raw": "travel_agency", "category_std": "tourism_culture", "category_std_th": "ที่พัก การท่องเที่ยว และวัฒนธรรม", "category_sub": "travel_agency", "category_sub_th": "บริษัทนำเที่ยว", "lat": 18.796918, "lon": 98.966138, "place_id": "ChIJ8VtRVGI62jARFQTUP99A-rc", "name": "Luxury Private Travel @ Nimman", "pri_type": "travel_agency", "types": "travel_agency,point_of_interest,service,establishment", "address": "26 Nimmanhaemin ตำบลสุเทพ อำเภอเมืองเชียงใหม่ เชียงใหม่ 50200", "query_lat": 18.797116298080301, "query_lon": 98.966195040529129 }, "geometry": { "type": "Point", "coordinates": [ 98.966138, 18.796918 ] } },
{ "type": "Feature", "properties": { "source": "gg", "poi_id": "ChIJczKPU2I62jAR0JFtGHK1J8w", "poi_name": "Fully new room in Hillside condo2, Nimmanhaemin", "category_raw": "lodging", "category_std": "tourism_culture", "category_std_th": "ที่พัก การท่องเที่ยว และวัฒนธรรม", "category_sub": "lodging", "category_sub_th": "ที่พัก", "lat": 18.7972393, "lon": 98.9663086, "place_id": "ChIJczKPU2I62jAR0JFtGHK1J8w", "name": "Fully new room in Hillside condo2, Nimmanhaemin", "pri_type": "lodging", "types": "lodging,point_of_interest,establishment", "address": "Nimmanhaemin ตำบลสุเทพ อำเภอเมืองเชียงใหม่ เชียงใหม่ 50200 ประเทศไทย", "query_lat": 18.797116298080301, "query_lon": 98.966195040529129 }, "geometry": { "type": "Point", "coordinates": [ 98.9663086, 18.7972393 ] } },
{ "type": "Feature", "properties": { "source": "gg", "poi_id": "ChIJpwXatBA72jARRrS1mYRaJ6U", "poi_name": "CHIM SOURDOUGH@NIMMAN", "category_raw": "manufacturer", "category_std": "office_professional", "category_std_th": "สำนักงานและบริการวิชาชีพ", "category_sub": "manufacturer", "category_sub_th": "manufacturer", "lat": 18.7974527, "lon": 98.9663763, "place_id": "ChIJpwXatBA72jARRrS1mYRaJ6U", "name": "CHIM SOURDOUGH@NIMMAN", "pri_type": "manufacturer", "types": "manufacturer,wholesaler,food,point_of_interest,service,establishment", "address": "24 1 ถนนนิมมานเหมินท์ Nimmanhaemin ตำบลสุเทพ อำเภอเมืองเชียงใหม่ เชียงใหม่ 50200", "query_lat": 18.797604028752005, "query_lon": 98.966286124664848 }, "geometry": { "type": "Point", "coordinates": [ 98.9663763, 18.7974527 ] } },
{ "type": "Feature", "properties": { "source": "gg", "poi_id": "ChIJFRzZUWI62jARn3_KihpcMUU", "poi_name": "Sukkasem Road", "category_raw": "bus_stop", "category_std": "other", "category_std_th": "อื่น ๆ", "category_sub": "bus_stop", "category_sub_th": "bus_stop", "lat": 18.79742, "lon": 98.9664, "place_id": "ChIJFRzZUWI62jARn3_KihpcMUU", "name": "Sukkasem Road", "pri_type": "bus_stop", "types": "bus_stop,transit_stop,transit_station,transportation_service,point_of_interest,establishment", "address": "Nimmanhaemin ตำบลสุเทพ อำเภอเมืองเชียงใหม่ เชียงใหม่ 50200 ประเทศไทย", "query_lat": 18.797604028752005, "query_lon": 98.966286124664848 }, "geometry": { "type": "Point", "coordinates": [ 98.9664, 18.79742 ] } },
{ "type": "Feature", "properties": { "source": "gg", "poi_id": "ChIJ9WQuT2I62jAR1pYYKCLpVTA", "poi_name": "宁曼路maya宁曼一号cbd中心豪华大房 - One-Bedroom Apartment", "category_raw": "lodging", "category_std": "tourism_culture", "category_std_th": "ที่พัก การท่องเที่ยว และวัฒนธรรม", "category_sub": "lodging", "category_sub_th": "ที่พัก", "lat": 18.7977695, "lon": 98.9664917, "place_id": "ChIJ9WQuT2I62jAR1pYYKCLpVTA", "name": "宁曼路maya宁曼一号cbd中心豪华大房 - One-Bedroom Apartment", "pri_type": "lodging", "types": "lodging,point_of_interest,establishment", "address": "Nimmanhaemin ตำบลสุเทพ อำเภอเมืองเชียงใหม่ เชียงใหม่ 50200 ประเทศไทย", "query_lat": 18.797604028752005, "query_lon": 98.966286124664848 }, "geometry": { "type": "Point", "coordinates": [ 98.9664917, 18.7977695 ] } },
{ "type": "Feature", "properties": { "source": "gg", "poi_id": "ChIJ3Y0p8CM72jARVJgfLd10BS0", "poi_name": "มั่งมีข้าวหมูทอด", "category_raw": "fast_food_restaurant", "category_std": "food_beverage", "category_std_th": "อาหารและเครื่องดื่ม", "category_sub": "fast_food_restaurant", "category_sub_th": "อาหารจานด่วน", "lat": 18.7979881, "lon": 98.9665426, "place_id": "ChIJ3Y0p8CM72jARVJgfLd10BS0", "name": "มั่งมีข้าวหมูทอด", "pri_type": "fast_food_restaurant", "types": "fast_food_restaurant,restaurant,food,point_of_interest,establishment", "address": "ถนนนิมมานเหมินท์ Nimmanhaemin ตำบลสุเทพ อำเภอเมืองเชียงใหม่ เชียงใหม่ 50200", "query_lat": 18.797982853920807, "query_lon": 98.966358231881557 }, "geometry": { "type": "Point", "coordinates": [ 98.966542600000011, 18.7979881 ] } },
{ "type": "Feature", "properties": { "source": "gg", "poi_id": "ChIJybbdbQA72jARfZFsOnGh7ZY", "poi_name": "Pimtofu.nimman", "category_raw": "vegetarian_restaurant", "category_std": "food_beverage", "category_std_th": "อาหารและเครื่องดื่ม", "category_sub": "vegetarian_restaurant", "category_sub_th": "vegetarian_restaurant", "lat": 18.7979445, "lon": 98.9665516, "place_id": "ChIJybbdbQA72jARfZFsOnGh7ZY", "name": "Pimtofu.nimman", "pri_type": "vegetarian_restaurant", "types": "vegetarian_restaurant,restaurant,food,point_of_interest,establishment", "address": "ถนนนิมมานเหมินท์ Nimmanhaemin ตำบลสุเทพ อำเภอเมืองเชียงใหม่ เชียงใหม่ 50200", "query_lat": 18.797982853920807, "query_lon": 98.966358231881557 }, "geometry": { "type": "Point", "coordinates": [ 98.9665516, 18.7979445 ] } },
{ "type": "Feature", "properties": { "source": "gg", "poi_id": "ChIJp0nTx1M72jARvE916zhKUfQ", "poi_name": "Affordable Thai food & halal มรกฎ More rar kot", "category_raw": "restaurant", "category_std": "food_beverage", "category_std_th": "อาหารและเครื่องดื่ม", "category_sub": "restaurant", "category_sub_th": "ร้านอาหาร", "lat": 18.7980041, "lon": 98.9665644, "place_id": "ChIJp0nTx1M72jARvE916zhKUfQ", "name": "Affordable Thai food & halal มรกฎ More rar kot", "pri_type": "restaurant", "types": "restaurant,food,point_of_interest,establishment", "address": "32, 2 ถนนนิมมานเหมินท์ Nimmanhaemin ตำบลสุเทพ อำเภอเมืองเชียงใหม่ เชียงใหม่ 50200", "query_lat": 18.797982853920807, "query_lon": 98.966358231881557 }, "geometry": { "type": "Point", "coordinates": [ 98.9665644, 18.7980041 ] } },
{ "type": "Feature", "properties": { "source": "gg", "poi_id": "ChIJmy9wSGI62jARLwxviutWztY", "poi_name": "แมคโดนัลด์ นิมมาน", "category_raw": "fast_food_restaurant", "category_std": "food_beverage", "category_std_th": "อาหารและเครื่องดื่ม", "category_sub": "fast_food_restaurant", "category_sub_th": "อาหารจานด่วน", "lat": 18.7980136, "lon": 98.9665691, "place_id": "ChIJmy9wSGI62jARLwxviutWztY", "name": "แมคโดนัลด์ นิมมาน", "pri_type": "fast_food_restaurant", "types": "fast_food_restaurant,restaurant,food,point_of_interest,establishment", "address": "32/1 ถนนนิมมานเหมินท์ Nimmanhaemin ตำบลสุเทพ อำเภอเมืองเชียงใหม่ เชียงใหม่ 50200", "query_lat": 18.797982853920807, "query_lon": 98.966358231881557 }, "geometry": { "type": "Point", "coordinates": [ 98.9665691, 18.7980136 ] } },
{ "type": "Feature", "properties": { "source": "gg", "poi_id": "ChIJxR2aSGI62jAR7q9OrrrFQ6Q", "poi_name": "Nimman Soi 2 villa", "category_raw": "lodging", "category_std": "tourism_culture", "category_std_th": "ที่พัก การท่องเที่ยว และวัฒนธรรม", "category_sub": "lodging", "category_sub_th": "ที่พัก", "lat": 18.7979068, "lon": 98.9665909, "place_id": "ChIJxR2aSGI62jAR7q9OrrrFQ6Q", "name": "Nimman Soi 2 villa", "pri_type": "lodging", "types": "lodging,point_of_interest,establishment", "address": "Nimmanhaemin ตำบลสุเทพ อำเภอเมืองเชียงใหม่ เชียงใหม่ 50200 ประเทศไทย", "query_lat": 18.797982853920807, "query_lon": 98.966358231881557 }, "geometry": { "type": "Point", "coordinates": [ 98.9665909, 18.7979068 ] } },
{ "type": "Feature", "properties": { "source": "gg", "poi_id": "ChIJr7_aVWI62jARGgIBIMFDV6s", "poi_name": "ร้านขายยาเมดิก้าฮับ", "category_raw": "pharmacy", "category_std": "health", "category_std_th": "สุขภาพและการแพทย์", "category_sub": "pharmacy", "category_sub_th": "ร้านขายยา", "lat": 18.7968223, "lon": 98.9662912, "place_id": "ChIJr7_aVWI62jARGgIBIMFDV6s", "name": "ร้านขายยาเมดิก้าฮับ", "pri_type": "pharmacy", "types": "pharmacy,store,health,point_of_interest,establishment", "address": "49 6 ถนนนิมมานเหมินท์ Nimmanhaemin ตำบลสุเทพ อำเภอเมืองเชียงใหม่ เชียงใหม่ 50200", "query_lat": 18.796717018402536, "query_lon": 98.966421928175578 }, "geometry": { "type": "Point", "coordinates": [ 98.9662912, 18.7968223 ] } },
{ "type": "Feature", "properties": { "source": "gg", "poi_id": "ChIJE3vkVGI62jAR9PAAqK5J-I4", "poi_name": "Stay in Style The Heart of Nimman R208 - Studio", "category_raw": "lodging", "category_std": "tourism_culture", "category_std_th": "ที่พัก การท่องเที่ยว และวัฒนธรรม", "category_sub": "lodging", "category_sub_th": "ที่พัก", "lat": 18.7968292, "lon": 98.9661713, "place_id": "ChIJE3vkVGI62jAR9PAAqK5J-I4", "name": "Stay in Style The Heart of Nimman R208 - Studio", "pri_type": "lodging", "types": "lodging,point_of_interest,establishment", "address": "Nimmanhaemin ตำบลสุเทพ อำเภอเมืองเชียงใหม่ เชียงใหม่ 50200 ประเทศไทย", "query_lat": 18.796717018402536, "query_lon": 98.966421928175578 }, "geometry": { "type": "Point", "coordinates": [ 98.966171300000013, 18.7968292 ] } },
{ "type": "Feature", "properties": { "source": "gg", "poi_id": "ChIJy61Zm8072jAReSPkYs1rLs0", "poi_name": "KWANclothings", "category_raw": "clothing_store", "category_std": "retail_commerce", "category_std_th": "การค้าปลีกและร้านค้า", "category_sub": "clothing_store", "category_sub_th": "ร้านเสื้อผ้า", "lat": 18.7971486, "lon": 98.9664071, "place_id": "ChIJy61Zm8072jAReSPkYs1rLs0", "name": "KWANclothings", "pri_type": "clothing_store", "types": "clothing_store,store,point_of_interest,establishment", "address": "โครงการ N-Parc ถ.นิมมานเหมินทร์ ซอย11 ถนน สุเทพ Nimmanhaemin ตำบลสุเทพ เมือง เชียงใหม่ 50200", "query_lat": 18.797212330009796, "query_lon": 98.966515363693873 }, "geometry": { "type": "Point", "coordinates": [ 98.9664071, 18.7971486 ] } },
{ "type": "Feature", "properties": { "source": "gg", "poi_id": "ChIJq5LMr-Q72jARA_uz4I17X1w", "poi_name": "Nimman Travel Agency", "category_raw": "travel_agency", "category_std": "tourism_culture", "category_std_th": "ที่พัก การท่องเที่ยว และวัฒนธรรม", "category_sub": "travel_agency", "category_sub_th": "บริษัทนำเที่ยว", "lat": 18.7978599, "lon": 98.9666817, "place_id": "ChIJq5LMr-Q72jARA_uz4I17X1w", "name": "Nimman Travel Agency", "pri_type": "travel_agency", "types": "travel_agency,point_of_interest,service,establishment", "address": "45, 5 ถนนนิมมานเหมินท์ Nimmanhaemin ตำบลสุเทพ อำเภอเมืองเชียงใหม่ เชียงใหม่ 50200", "query_lat": 18.797982901520808, "query_lon": 98.966623440324724 }, "geometry": { "type": "Point", "coordinates": [ 98.9666817, 18.7978599 ] } },
{ "type": "Feature", "properties": { "source": "gg", "poi_id": "ChIJDU5teSc72jAR_OGzUS9kT4E", "poi_name": "บู๊ทส์ ถนนนิมมาน", "category_raw": "store", "category_std": "retail_commerce", "category_std_th": "การค้าปลีกและร้านค้า", "category_sub": "store", "category_sub_th": "ร้านค้าทั่วไป", "lat": 18.7980941, "lon": 98.9667741, "place_id": "ChIJDU5teSc72jAR_OGzUS9kT4E", "name": "บู๊ทส์ ถนนนิมมาน", "pri_type": "store", "types": "store,point_of_interest,establishment", "address": "43/1 ถนนนิมมานเหมินท์ Nimmanhaemin ตำบลสุเทพ อำเภอเมืองเชียงใหม่ เชียงใหม่ 50200", "query_lat": 18.797982901520808, "query_lon": 98.966623440324724 }, "geometry": { "type": "Point", "coordinates": [ 98.9667741, 18.7980941 ] } },
{ "type": "Feature", "properties": { "source": "gg", "poi_id": "ChIJdR4cbwA72jAR2r9xnZ2oAbo", "poi_name": "Klom Sleep Salon", "category_raw": "spa", "category_std": "personal_service_repair", "category_std_th": "บริการส่วนบุคคลและงานซ่อม", "category_sub": "spa", "category_sub_th": "สปา", "lat": 18.7980941, "lon": 98.9667741, "place_id": "ChIJdR4cbwA72jAR2r9xnZ2oAbo", "name": "Klom Sleep Salon", "pri_type": "spa", "types": "spa,point_of_interest,establishment", "address": "43/1 ถนนนิมมานเหมินท์ Nimmanhaemin ตำบลสุเทพ เมือง เชียงใหม่ 50200", "query_lat": 18.797982901520808, "query_lon": 98.966623440324724 }, "geometry": { "type": "Point", "coordinates": [ 98.9667741, 18.7980941 ] } },
{ "type": "Feature", "properties": { "source": "gg", "poi_id": "ChIJB9IdJUI72jAR4ZUC3uFBMu0", "poi_name": "Boots Nimman road", "category_raw": "pharmacy", "category_std": "health", "category_std_th": "สุขภาพและการแพทย์", "category_sub": "pharmacy", "category_sub_th": "ร้านขายยา", "lat": 18.7980941, "lon": 98.9667741, "place_id": "ChIJB9IdJUI72jAR4ZUC3uFBMu0", "name": "Boots Nimman road", "pri_type": "pharmacy", "types": "pharmacy,store,health,point_of_interest,establishment", "address": "43/1 ถนนนิมมานเหมินท์ Nimmanhaemin ตำบลสุเทพ อำเภอเมืองเชียงใหม่ เชียงใหม่ 50200", "query_lat": 18.797982901520808, "query_lon": 98.966623440324724 }, "geometry": { "type": "Point", "coordinates": [ 98.9667741, 18.7980941 ] } },
{ "type": "Feature", "properties": { "source": "gg", "poi_id": "ChIJ-d0Sjhs72jARBSntPo8mHOw", "poi_name": "Palin Cotton", "category_raw": "store", "category_std": "retail_commerce", "category_std_th": "การค้าปลีกและร้านค้า", "category_sub": "store", "category_sub_th": "ร้านค้าทั่วไป", "lat": 18.798569, "lon": 98.9668745, "place_id": "ChIJ-d0Sjhs72jARBSntPo8mHOw", "name": "Palin Cotton", "pri_type": "store", "types": "store,point_of_interest,establishment", "address": "12, 22 ถนนนิมมานเหมินท์ Nimmanhaemin ตำบลสุเทพ อำเภอเมืองเชียงใหม่ เชียงใหม่ 50200", "query_lat": 18.798545309025293, "query_lon": 98.966704372430527 }, "geometry": { "type": "Point", "coordinates": [ 98.9668745, 18.798569 ] } },
{ "type": "Feature", "properties": { "source": "gg", "poi_id": "ChIJ1ybA3Po72jARWUy8OEvHCtQ", "poi_name": "Loft Cafe Solution(총라오)", "category_raw": "restaurant", "category_std": "food_beverage", "category_std_th": "อาหารและเครื่องดื่ม", "category_sub": "restaurant", "category_sub_th": "ร้านอาหาร", "lat": 18.7985633, "lon": 98.9669298, "place_id": "ChIJ1ybA3Po72jARWUy8OEvHCtQ", "name": "Loft Cafe Solution(총라오)", "pri_type": "restaurant", "types": "restaurant,food,point_of_interest,establishment", "address": "QXX8+CQF Nimmanhaemin ตำบลสุเทพ อำเภอเมืองเชียงใหม่ เชียงใหม่ 50200", "query_lat": 18.798545309025293, "query_lon": 98.966704372430527 }, "geometry": { "type": "Point", "coordinates": [ 98.9669298, 18.7985633 ] } },
{ "type": "Feature", "properties": { "source": "gg", "poi_id": "ChIJzRVcBBk72jARVb5zGYDjU-Q", "poi_name": "Love Bunny", "category_raw": "condominium_complex", "category_std": "other", "category_std_th": "อื่น ๆ", "category_sub": "condominium_complex", "category_sub_th": "condominium_complex", "lat": 18.7985633, "lon": 98.9669298, "place_id": "ChIJzRVcBBk72jARVb5zGYDjU-Q", "name": "Love Bunny", "pri_type": "condominium_complex", "types": "condominium_complex,point_of_interest,service,establishment", "address": "C505 Nimmana Condo, Soi 6 Nimmanhaemin ตำบลสุเทพ อำเภอเมืองเชียงใหม่ เชียงใหม่ 50200", "query_lat": 18.798545309025293, "query_lon": 98.966704372430527 }, "geometry": { "type": "Point", "coordinates": [ 98.9669298, 18.7985633 ] } },
{ "type": "Feature", "properties": { "source": "gg", "poi_id": "ChIJp-oxOJQ72jARkJlnv0tTorE", "poi_name": "Xavier Chiang Mai Nimman 5", "category_raw": "bar", "category_std": "food_beverage", "category_std_th": "อาหารและเครื่องดื่ม", "category_sub": "bar", "category_sub_th": "บาร์", "lat": 18.79863, "lon": 98.9669656, "place_id": "ChIJp-oxOJQ72jARkJlnv0tTorE", "name": "Xavier Chiang Mai Nimman 5", "pri_type": "bar", "types": "bar,restaurant,food,point_of_interest,establishment", "address": "เลขที่ 1 ถนน นิมมานเหมินท์ ซอย 5 Nimmanhaemin ตำบลสุเทพ อำเภอเมืองเชียงใหม่ เชียงใหม่ 50200", "query_lat": 18.798545309025293, "query_lon": 98.966704372430527 }, "geometry": { "type": "Point", "coordinates": [ 98.9669656, 18.79863 ] } },
{ "type": "Feature", "properties": { "source": "gg", "poi_id": "ChIJ5ZCqPGI62jARraEQyN9KneQ", "poi_name": "A.M.S Group of Companies", "category_raw": "service", "category_std": "personal_service_repair", "category_std_th": "บริการส่วนบุคคลและงานซ่อม", "category_sub": "service", "category_sub_th": "service", "lat": 18.7988686, "lon": 98.9669786, "place_id": "ChIJ5ZCqPGI62jARraEQyN9KneQ", "name": "A.M.S Group of Companies", "pri_type": "service", "types": "service,point_of_interest,establishment", "address": "87 ถนนนิมมานเหมินท์ Nimmanhaemin ตำบลสุเทพ อำเภอเมืองเชียงใหม่ เชียงใหม่ 50200", "query_lat": 18.799006699638731, "query_lon": 98.966789046003882 }, "geometry": { "type": "Point", "coordinates": [ 98.9669786, 18.7988686 ] } },
{ "type": "Feature", "properties": { "source": "gg", "poi_id": "ChIJsYOqPGI62jARfFbkN8uRKB8", "poi_name": "Thai Copy Paper Factory", "category_raw": "point_of_interest", "category_std": "tourism_culture", "category_std_th": "ที่พัก การท่องเที่ยว และวัฒนธรรม", "category_sub": "point_of_interest", "category_sub_th": "point_of_interest", "lat": 18.7988664, "lon": 98.9669779, "place_id": "ChIJsYOqPGI62jARfFbkN8uRKB8", "name": "Thai Copy Paper Factory", "pri_type": "point_of_interest", "types": "point_of_interest,establishment", "address": "87 ถนนนิมมานเหมินท์ Nimmanhaemin ตำบลสุเทพ อำเภอเมืองเชียงใหม่ เชียงใหม่ 50200", "query_lat": 18.799006699638731, "query_lon": 98.966789046003882 }, "geometry": { "type": "Point", "coordinates": [ 98.966977899999989, 18.7988664 ] } },
{ "type": "Feature", "properties": { "source": "gg", "poi_id": "ChIJkbGHxtY72jARE112U4WR1U8", "poi_name": "MePhone", "category_raw": "cell_phone_store", "category_std": "retail_commerce", "category_std_th": "การค้าปลีกและร้านค้า", "category_sub": "cell_phone_store", "category_sub_th": "ร้านโทรศัพท์มือถือ", "lat": 18.7991189, "lon": 98.9669991, "place_id": "ChIJkbGHxtY72jARE112U4WR1U8", "name": "MePhone", "pri_type": "cell_phone_store", "types": "cell_phone_store,store,point_of_interest,establishment", "address": "8 ถนนนิมมานเหมินท์ Nimmanhaemin ตำบลสุเทพ เมือง เชียงใหม่ 50200", "query_lat": 18.799006699638731, "query_lon": 98.966789046003882 }, "geometry": { "type": "Point", "coordinates": [ 98.96699910000001, 18.7991189 ] } },
{ "type": "Feature", "properties": { "source": "gg", "poi_id": "ChIJsdYw6_Q72jARtqnua0ZkKDs", "poi_name": "Peter Exchange", "category_raw": "service", "category_std": "personal_service_repair", "category_std_th": "บริการส่วนบุคคลและงานซ่อม", "category_sub": "service", "category_sub_th": "service", "lat": 18.7991116, "lon": 98.9670038, "place_id": "ChIJsdYw6_Q72jARtqnua0ZkKDs", "name": "Peter Exchange", "pri_type": "service", "types": "finance,service,point_of_interest,establishment", "address": "เลขที่8 ถนนนิมมานเหมินท์ Nimmanhaemin ตำบลสุเทพ เมือง เชียงใหม่ 50000", "query_lat": 18.799006699638731, "query_lon": 98.966789046003882 }, "geometry": { "type": "Point", "coordinates": [ 98.9670038, 18.7991116 ] } },
{ "type": "Feature", "properties": { "source": "gg", "poi_id": "ChIJ8U5rrlg72jARATsYT6vUJF4", "poi_name": "清迈房产交易平台", "category_raw": "corporate_office", "category_std": "office_professional", "category_std_th": "สำนักงานและบริการวิชาชีพ", "category_sub": "corporate_office", "category_sub_th": "สำนักงานบริษัท", "lat": 18.7991694, "lon": 98.9669913, "place_id": "ChIJ8U5rrlg72jARATsYT6vUJF4", "name": "清迈房产交易平台", "pri_type": "corporate_office", "types": "corporate_office,point_of_interest,establishment", "address": "เชียงใหม่ อำเภอเมืองเชียงใหม่ เทศบาลนครเชียงใหม่ Nimmanhaemin ถนน นิมมานเหมินท์ ซอย 6 43 Nimman邮政编码: 50200", "query_lat": 18.799006699638731, "query_lon": 98.966789046003882 }, "geometry": { "type": "Point", "coordinates": [ 98.966991299999989, 18.7991694 ] } },
{ "type": "Feature", "properties": { "source": "gg", "poi_id": "ChIJR6UYb_Ul2jAR60NMMxuOcQc", "poi_name": "ป้ายนิมมานขาเข้า-ออก by Scene Space", "category_raw": "service", "category_std": "personal_service_repair", "category_std_th": "บริการส่วนบุคคลและงานซ่อม", "category_sub": "service", "category_sub_th": "service", "lat": 18.7991696, "lon": 98.9669979, "place_id": "ChIJR6UYb_Ul2jAR60NMMxuOcQc", "name": "ป้ายนิมมานขาเข้า-ออก by Scene Space", "pri_type": "service", "types": "service,point_of_interest,establishment", "address": "บริษัท ซีน สเปซ พลัส จำกัด อาคารสตาร์เวิร์ค ชั้น4 Nimmanhaemin ตำบลสุเทพ อำเภอเมืองเชียงใหม่ เชียงให", "query_lat": 18.799006699638731, "query_lon": 98.966789046003882 }, "geometry": { "type": "Point", "coordinates": [ 98.96699790000001, 18.7991696 ] } },
{ "type": "Feature", "properties": { "source": "gg", "poi_id": "ChIJka5rIWI62jARnOjh1ntagYw", "poi_name": "The Artist Spa", "category_raw": "massage", "category_std": "personal_service_repair", "category_std_th": "บริการส่วนบุคคลและงานซ่อม", "category_sub": "massage", "category_sub_th": "ร้านนวด", "lat": 18.7993007, "lon": 98.9670284, "place_id": "ChIJka5rIWI62jARnOjh1ntagYw", "name": "The Artist Spa", "pri_type": "massage", "types": "massage,service,point_of_interest,establishment", "address": "8 3 ถนนนิมมานเหมินทร์ - สุขเกษม Nimmanhaemin ตำบลสุเทพ อำเภอเมืองเชียงใหม่ เชียงใหม่ 50200", "query_lat": 18.799283078520496, "query_lon": 98.966839735838249 }, "geometry": { "type": "Point", "coordinates": [ 98.9670284, 18.7993007 ] } },
{ "type": "Feature", "properties": { "source": "gg", "poi_id": "ChIJZxVjgzg72jARY_0ujsjSn4Y", "poi_name": "Lot of Taste", "category_raw": "coffee_shop", "category_std": "food_beverage", "category_std_th": "อาหารและเครื่องดื่ม", "category_sub": "coffee_shop", "category_sub_th": "ร้านกาแฟ", "lat": 18.7992995, "lon": 98.9670501, "place_id": "ChIJZxVjgzg72jARY_0ujsjSn4Y", "name": "Lot of Taste", "pri_type": "coffee_shop", "types": "coffee_shop,cafe,food_store,food,store,point_of_interest,establishment", "address": "8 5 ถนนนิมมานเหมินท์ Nimmanhaemin ตำบลสุเทพ อำเภอเมืองเชียงใหม่ เชียงใหม่ 50200", "query_lat": 18.799283078520496, "query_lon": 98.966839735838249 }, "geometry": { "type": "Point", "coordinates": [ 98.9670501, 18.7992995 ] } },
{ "type": "Feature", "properties": { "source": "gg", "poi_id": "ChIJh7ywHGI62jAR-UYdMPYw8lw", "poi_name": "พิพิธภัณฑ์เครื่องถ้วยจอห์น แอนแพทซอว์", "category_raw": "museum", "category_std": "tourism_culture", "category_std_th": "ที่พัก การท่องเที่ยว และวัฒนธรรม", "category_sub": "museum", "category_sub_th": "พิพิธภัณฑ์", "lat": 18.7992995, "lon": 98.9670501, "place_id": "ChIJh7ywHGI62jAR-UYdMPYw8lw", "name": "พิพิธภัณฑ์เครื่องถ้วยจอห์น แอนแพทซอว์", "pri_type": "museum", "types": "museum,point_of_interest,establishment", "address": "5 ถนนนิมมานเหมินท์ Nimmanhaemin ตำบลสุเทพ อำเภอเมืองเชียงใหม่ เชียงใหม่ 50200", "query_lat": 18.799283078520496, "query_lon": 98.966839735838249 }, "geometry": { "type": "Point", "coordinates": [ 98.9670501, 18.7992995 ] } },
{ "type": "Feature", "properties": { "source": "gg", "poi_id": "ChIJU9Tb3LIx2jARCwEPFhJwabA", "poi_name": "Food Truck ทองประไพ ThongPrapai Homemade Eatery Chiangmai", "category_raw": "fast_food_restaurant", "category_std": "food_beverage", "category_std_th": "อาหารและเครื่องดื่ม", "category_sub": "fast_food_restaurant", "category_sub_th": "อาหารจานด่วน", "lat": 18.7993407, "lon": 98.9670611, "place_id": "ChIJU9Tb3LIx2jARCwEPFhJwabA", "name": "Food Truck ทองประไพ ThongPrapai Homemade Eatery Chiangmai", "pri_type": "fast_food_restaurant", "types": "fast_food_restaurant,restaurant,food,point_of_interest,establishment", "address": "Food Truck ถนนนิมมานเหมินท์ จอดหน้าร้าน สินีคลินิค ( ฝั่ง จอดตรงกลาง ระหว่าง \"ร้านเล่า\" และ ร้านกาแฟ", "query_lat": 18.799283078520496, "query_lon": 98.966839735838249 }, "geometry": { "type": "Point", "coordinates": [ 98.9670611, 18.7993407 ] } },
{ "type": "Feature", "properties": { "source": "gg", "poi_id": "ChIJEcOmqYs72jAR0O8L0P-2-5Y", "poi_name": "ILY SHOP สาขานิมมาน 泰國特產药店", "category_raw": "store", "category_std": "retail_commerce", "category_std_th": "การค้าปลีกและร้านค้า", "category_sub": "store", "category_sub_th": "ร้านค้าทั่วไป", "lat": 18.7993385, "lon": 98.9670636, "place_id": "ChIJEcOmqYs72jAR0O8L0P-2-5Y", "name": "ILY SHOP สาขานิมมาน 泰國特產药店", "pri_type": "store", "types": "store,point_of_interest,establishment", "address": "7 ถนนนิมมานเหมินท์ Nimmanhaemin ตำบลสุเทพ เมือง เชียงใหม่ 50200", "query_lat": 18.799283078520496, "query_lon": 98.966839735838249 }, "geometry": { "type": "Point", "coordinates": [ 98.967063599999989, 18.7993385 ] } },
{ "type": "Feature", "properties": { "source": "gg", "poi_id": "ChIJXTgtJ2I62jAR3HgRbTg5HlM", "poi_name": "ร้านเล่า", "category_raw": "book_store", "category_std": "retail_commerce", "category_std_th": "การค้าปลีกและร้านค้า", "category_sub": "book_store", "category_sub_th": "ร้านหนังสือ", "lat": 18.7993385, "lon": 98.9670636, "place_id": "ChIJXTgtJ2I62jAR3HgRbTg5HlM", "name": "ร้านเล่า", "pri_type": "book_store", "types": "book_store,store,point_of_interest,establishment", "address": "8 7 ถนนนิมมานเหมินท์ Nimmanhaemin ตำบลสุเทพ อำเภอเมืองเชียงใหม่ เชียงใหม่ 50200", "query_lat": 18.799283078520496, "query_lon": 98.966839735838249 }, "geometry": { "type": "Point", "coordinates": [ 98.967063599999989, 18.7993385 ] } },
{ "type": "Feature", "properties": { "source": "gg", "poi_id": "ChIJL1UvIWI62jARDrIrXi9ab_4", "poi_name": "สินีคลินิก", "category_raw": "doctor", "category_std": "health", "category_std_th": "สุขภาพและการแพทย์", "category_sub": "doctor", "category_sub_th": "แพทย์/คลินิก", "lat": 18.7993929, "lon": 98.9670988, "place_id": "ChIJL1UvIWI62jARDrIrXi9ab_4", "name": "สินีคลินิก", "pri_type": "doctor", "types": "doctor,health,point_of_interest,establishment", "address": "8 6 ถนนนิมมานเหมินท์ Nimmanhaemin ตำบลสุเทพ อำเภอเมืองเชียงใหม่ เชียงใหม่ 50200", "query_lat": 18.799283078520496, "query_lon": 98.966839735838249 }, "geometry": { "type": "Point", "coordinates": [ 98.9670988, 18.7993929 ] } },
{ "type": "Feature", "properties": { "source": "gg", "poi_id": "ChIJJZsZnuw72jARc7T2TuXDqNY", "poi_name": "100 Baht Shop Thailand - Nimman Chiang Mai (CMN)", "category_raw": "warehouse_store", "category_std": "retail_commerce", "category_std_th": "การค้าปลีกและร้านค้า", "category_sub": "warehouse_store", "category_sub_th": "warehouse_store", "lat": 18.7996036, "lon": 98.9671514, "place_id": "ChIJJZsZnuw72jARc7T2TuXDqNY", "name": "100 Baht Shop Thailand - Nimman Chiang Mai (CMN)", "pri_type": "warehouse_store", "types": "warehouse_store,store,point_of_interest,establishment", "address": "ถนนนิมมานเหมินท์ Nimmanhaemin ตำบลสุเทพ อำเภอเมืองเชียงใหม่ เชียงใหม่ 50200", "query_lat": 18.799522106412791, "query_lon": 98.967120821469251 }, "geometry": { "type": "Point", "coordinates": [ 98.9671514, 18.7996036 ] } },
{ "type": "Feature", "properties": { "source": "gg", "poi_id": "ChIJoaK-zFg72jARXROHjHMllys", "poi_name": "Fresh Harvest Farm Chiang Mai", "category_raw": "restaurant", "category_std": "food_beverage", "category_std_th": "อาหารและเครื่องดื่ม", "category_sub": "restaurant", "category_sub_th": "ร้านอาหาร", "lat": 18.7996032, "lon": 98.9671593, "place_id": "ChIJoaK-zFg72jARXROHjHMllys", "name": "Fresh Harvest Farm Chiang Mai", "pri_type": "restaurant", "types": "restaurant,food,point_of_interest,establishment", "address": "6, 25 ถนนนิมมานเหมินท์ Nimmanhaemin ตำบลสุเทพ อำเภอเมืองเชียงใหม่ เชียงใหม่ 50200", "query_lat": 18.799522106412791, "query_lon": 98.967120821469251 }, "geometry": { "type": "Point", "coordinates": [ 98.9671593, 18.7996032 ] } },
{ "type": "Feature", "properties": { "source": "gg", "poi_id": "ChIJkSViCog72jARrRkb6g7oktg", "poi_name": "De Rest Spa - Chiang Mai", "category_raw": "massage_spa", "category_std": "personal_service_repair", "category_std_th": "บริการส่วนบุคคลและงานซ่อม", "category_sub": "massage_spa", "category_sub_th": "สปาและร้านนวด", "lat": 18.7996477, "lon": 98.9671723, "place_id": "ChIJkSViCog72jARrRkb6g7oktg", "name": "De Rest Spa - Chiang Mai", "pri_type": "massage_spa", "types": "massage_spa,spa,massage,service,point_of_interest,establishment", "address": "6/23 ถนนนิมมานเหมินท์ Nimmanhaemin ตำบลสุเทพ อำเภอเมืองเชียงใหม่ เชียงใหม่ 50200", "query_lat": 18.799522106412791, "query_lon": 98.967120821469251 }, "geometry": { "type": "Point", "coordinates": [ 98.967172300000016, 18.7996477 ] } },
{ "type": "Feature", "properties": { "source": "gg", "poi_id": "ChIJ6VQyILo72jAR-2ktsOIgJwI", "poi_name": "Herb Massage Annex", "category_raw": "massage_spa", "category_std": "personal_service_repair", "category_std_th": "บริการส่วนบุคคลและงานซ่อม", "category_sub": "massage_spa", "category_sub_th": "สปาและร้านนวด", "lat": 18.7997129, "lon": 98.9671906, "place_id": "ChIJ6VQyILo72jAR-2ktsOIgJwI", "name": "Herb Massage Annex", "pri_type": "massage_spa", "types": "massage_spa,spa,massage,service,point_of_interest,establishment", "address": "6/21 Nimmanhaemin ตำบลสุเทพ เมือง เชียงใหม่ 50200", "query_lat": 18.799522106412791, "query_lon": 98.967120821469251 }, "geometry": { "type": "Point", "coordinates": [ 98.9671906, 18.7997129 ] } },
{ "type": "Feature", "properties": { "source": "gg", "poi_id": "ChIJSzfFegA72jAROgLOJbjWHA8", "poi_name": "Nimman Massage", "category_raw": "massage", "category_std": "personal_service_repair", "category_std_th": "บริการส่วนบุคคลและงานซ่อม", "category_sub": "massage", "category_sub_th": "ร้านนวด", "lat": 18.7997447, "lon": 98.9671997, "place_id": "ChIJSzfFegA72jAROgLOJbjWHA8", "name": "Nimman Massage", "pri_type": "massage", "types": "massage_spa,spa,massage,service,health,point_of_interest,establishment", "address": "6/20 ถนนนิมมานเหมินท์ Nimmanhaemin ตำบลสุเทพ อำเภอเมืองเชียงใหม่ เชียงใหม่ 50200", "query_lat": 18.799522106412791, "query_lon": 98.967120821469251 }, "geometry": { "type": "Point", "coordinates": [ 98.9671997, 18.7997447 ] } },
{ "type": "Feature", "properties": { "source": "gg", "poi_id": "ChIJ0XLmimE62jAROewJfwvxH5M", "poi_name": "บริษัท ขุมทรัพย์ นิมมาน สาขา นิมมาน", "category_raw": "point_of_interest", "category_std": "tourism_culture", "category_std_th": "ที่พัก การท่องเที่ยว และวัฒนธรรม", "category_sub": "point_of_interest", "category_sub_th": "point_of_interest", "lat": 18.7997446, "lon": 98.9672148, "place_id": "ChIJ0XLmimE62jAROewJfwvxH5M", "name": "บริษัท ขุมทรัพย์ นิมมาน สาขา นิมมาน", "pri_type": "point_of_interest", "types": "point_of_interest,establishment", "address": "QXX8+VVW ถนนนิมมานเหมินท์ Nimmanhaemin ตำบลสุเทพ อำเภอเมืองเชียงใหม่ เชียงใหม่ 50200", "query_lat": 18.799522106412791, "query_lon": 98.967120821469251 }, "geometry": { "type": "Point", "coordinates": [ 98.9672148, 18.7997446 ] } },
{ "type": "Feature", "properties": { "source": "gg", "poi_id": "ChIJ4cz5lOU72jARFqBHAHes2xE", "poi_name": "Dasy Massage & Spa One Nimman", "category_raw": "massage_spa", "category_std": "personal_service_repair", "category_std_th": "บริการส่วนบุคคลและงานซ่อม", "category_sub": "massage_spa", "category_sub_th": "สปาและร้านนวด", "lat": 18.7997716, "lon": 98.9672096, "place_id": "ChIJ4cz5lOU72jARFqBHAHes2xE", "name": "Dasy Massage & Spa One Nimman", "pri_type": "massage_spa", "types": "massage_spa,spa,massage,service,point_of_interest,establishment", "address": "6, 19 Nimman Road Nimmanhaemin ตำบลสุเทพ Meaung, เชียงใหม่ 50200", "query_lat": 18.799522106412791, "query_lon": 98.967120821469251 }, "geometry": { "type": "Point", "coordinates": [ 98.9672096, 18.7997716 ] } },
{ "type": "Feature", "properties": { "source": "gg", "poi_id": "ChIJ15XAsM072jAR0Jdoj33G1Sg", "poi_name": "WeeDs Bloom ONE", "category_raw": "store", "category_std": "retail_commerce", "category_std_th": "การค้าปลีกและร้านค้า", "category_sub": "store", "category_sub_th": "ร้านค้าทั่วไป", "lat": 18.7999282, "lon": 98.9672702, "place_id": "ChIJ15XAsM072jAR0Jdoj33G1Sg", "name": "WeeDs Bloom ONE", "pri_type": "store", "types": "store,point_of_interest,establishment", "address": "6, 16 ถนนนิมมานเหมินท์ Nimmanhaemin ตำบลสุเทพ เมือง เชียงใหม่ 50200", "query_lat": 18.79995703428547, "query_lon": 98.96720060521281 }, "geometry": { "type": "Point", "coordinates": [ 98.9672702, 18.7999282 ] } },
{ "type": "Feature", "properties": { "source": "gg", "poi_id": "ChIJtyzaqvY72jARslY5EmcQbvo", "poi_name": "Herb Massage at nimman", "category_raw": "massage", "category_std": "personal_service_repair", "category_std_th": "บริการส่วนบุคคลและงานซ่อม", "category_sub": "massage", "category_sub_th": "ร้านนวด", "lat": 18.7999282, "lon": 98.9672702, "place_id": "ChIJtyzaqvY72jARslY5EmcQbvo", "name": "Herb Massage at nimman", "pri_type": "massage", "types": "massage_spa,massage,spa,point_of_interest,service,establishment", "address": "6 16 ถนนนิมมานเหมินท์ Nimmanhaemin ตำบลสุเทพ อำเภอเมืองเชียงใหม่ เชียงใหม่ 50200", "query_lat": 18.79995703428547, "query_lon": 98.96720060521281 }, "geometry": { "type": "Point", "coordinates": [ 98.9672702, 18.7999282 ] } },
{ "type": "Feature", "properties": { "source": "gg", "poi_id": "ChIJEajTXUI72jAR3Sjs5SzMfSI", "poi_name": "All Good Property Trading Center", "category_raw": "consultant", "category_std": "office_professional", "category_std_th": "สำนักงานและบริการวิชาชีพ", "category_sub": "consultant", "category_sub_th": "consultant", "lat": 18.7999664, "lon": 98.967281, "place_id": "ChIJEajTXUI72jAR3Sjs5SzMfSI", "name": "All Good Property Trading Center", "pri_type": "consultant", "types": "real_estate_agency,consultant,point_of_interest,service,establishment", "address": "6, 16 ถนนนิมมานเหมินทร์ Nimmanhaemin ตำบลสุเทพ อำเภอเมืองเชียงใหม่ เชียงใหม่ 50200", "query_lat": 18.79995703428547, "query_lon": 98.96720060521281 }, "geometry": { "type": "Point", "coordinates": [ 98.967281, 18.7999664 ] } },
{ "type": "Feature", "properties": { "source": "gg", "poi_id": "ChIJiYJ9jWA72jARRdgo9cd8ir4", "poi_name": "Lis creator4", "category_raw": "service", "category_std": "personal_service_repair", "category_std_th": "บริการส่วนบุคคลและงานซ่อม", "category_sub": "service", "category_sub_th": "service", "lat": 18.7998854, "lon": 98.9672513, "place_id": "ChIJiYJ9jWA72jARRdgo9cd8ir4", "name": "Lis creator4", "pri_type": "service", "types": "point_of_interest,service,establishment", "address": "35/3 ถนนนิมมานเหมินท์ Nimmanhaemin ตำบลสุเทพ เมือง เชียงใหม่ 50200", "query_lat": 18.79995703428547, "query_lon": 98.96720060521281 }, "geometry": { "type": "Point", "coordinates": [ 98.9672513, 18.7998854 ] } },
{ "type": "Feature", "properties": { "source": "gg", "poi_id": "ChIJQ3NWtXc72jAR0o85BX_a-l0", "poi_name": "Rossa House (Nimman)", "category_raw": "hostel", "category_std": "tourism_culture", "category_std_th": "ที่พัก การท่องเที่ยว และวัฒนธรรม", "category_sub": "hostel", "category_sub_th": "โฮสเทล", "lat": 18.799968, "lon": 98.9672844, "place_id": "ChIJQ3NWtXc72jAR0o85BX_a-l0", "name": "Rossa House (Nimman)", "pri_type": "hostel", "types": "hostel,lodging,point_of_interest,establishment", "address": "6, 15 ถนนนิมมานเหมินทร์ - สุขเกษม Nimmanhaemin ตำบลสุเทพ อำเภอเมืองเชียงใหม่ เชียงใหม่ 50200", "query_lat": 18.79995703428547, "query_lon": 98.96720060521281 }, "geometry": { "type": "Point", "coordinates": [ 98.967284400000011, 18.799968 ] } },
{ "type": "Feature", "properties": { "source": "gg", "poi_id": "ChIJuwtSkGE62jARmad-2utwo_c", "poi_name": "Hong Tauw Inn", "category_raw": "thai_restaurant", "category_std": "food_beverage", "category_std_th": "อาหารและเครื่องดื่ม", "category_sub": "thai_restaurant", "category_sub_th": "thai_restaurant", "lat": 18.7998708, "lon": 98.967257, "place_id": "ChIJuwtSkGE62jARmad-2utwo_c", "name": "Hong Tauw Inn", "pri_type": "thai_restaurant", "types": "thai_restaurant,asian_restaurant,restaurant,food,point_of_interest,establishment", "address": "95 17-18 ถนนนิมมานเหมินท์ Nimmanhaemin ตำบลสุเทพ อำเภอเมืองเชียงใหม่ เชียงใหม่ 50200", "query_lat": 18.79995703428547, "query_lon": 98.96720060521281 }, "geometry": { "type": "Point", "coordinates": [ 98.967257, 18.7998708 ] } },
{ "type": "Feature", "properties": { "source": "gg", "poi_id": "ChIJpWRmTJQ72jARaUmfCtjnOCM", "poi_name": "GOOD FRUITS", "category_raw": "ice_cream_shop", "category_std": "food_beverage", "category_std_th": "อาหารและเครื่องดื่ม", "category_sub": "ice_cream_shop", "category_sub_th": "ice_cream_shop", "lat": 18.7999672, "lon": 98.9673223, "place_id": "ChIJpWRmTJQ72jARaUmfCtjnOCM", "name": "GOOD FRUITS", "pri_type": "ice_cream_shop", "types": "ice_cream_shop,dessert_shop,confectionery,food_store,store,food,point_of_interest,establishment", "address": "5f ถนนนิมมานเหมินท์ Nimmanhaemin ตำบลสุเทพ อำเภอเมืองเชียงใหม่ เชียงใหม่ 50200", "query_lat": 18.79995703428547, "query_lon": 98.96720060521281 }, "geometry": { "type": "Point", "coordinates": [ 98.9673223, 18.7999672 ] } },
{ "type": "Feature", "properties": { "source": "gg", "poi_id": "ChIJkzrtQgA72jARwnBidXQXYLw", "poi_name": "Lalalis Massage", "category_raw": "massage", "category_std": "personal_service_repair", "category_std_th": "บริการส่วนบุคคลและงานซ่อม", "category_sub": "massage", "category_sub_th": "ร้านนวด", "lat": 18.7998431, "lon": 98.9672447, "place_id": "ChIJkzrtQgA72jARwnBidXQXYLw", "name": "Lalalis Massage", "pri_type": "massage", "types": "massage,point_of_interest,service,establishment", "address": "ถนนนิมมานเหมินท์ Nimmanhaemin ตำบลสุเทพ อำเภอเมืองเชียงใหม่ เชียงใหม่ 50200", "query_lat": 18.79995703428547, "query_lon": 98.96720060521281 }, "geometry": { "type": "Point", "coordinates": [ 98.9672447, 18.7998431 ] } },
{ "type": "Feature", "properties": { "source": "gg", "poi_id": "ChIJUxSyjGE62jARQAXVWZUJw4M", "poi_name": "Doitung", "category_raw": "point_of_interest", "category_std": "tourism_culture", "category_std_th": "ที่พัก การท่องเที่ยว และวัฒนธรรม", "category_sub": "point_of_interest", "category_sub_th": "point_of_interest", "lat": 18.8000154, "lon": 98.9673036, "place_id": "ChIJUxSyjGE62jARQAXVWZUJw4M", "name": "Doitung", "pri_type": "point_of_interest", "types": "point_of_interest,establishment", "address": "Nimmanhaemin ตำบลสุเทพ อำเภอเมืองเชียงใหม่ เชียงใหม่ 50200 ประเทศไทย", "query_lat": 18.79995703428547, "query_lon": 98.96720060521281 }, "geometry": { "type": "Point", "coordinates": [ 98.9673036, 18.8000154 ] } },
{ "type": "Feature", "properties": { "source": "gg", "poi_id": "ChIJcXWlbnU72jAR8sECfjGaPK8", "poi_name": "Win Plus By Win Cosmetics", "category_raw": "cosmetics_store", "category_std": "retail_commerce", "category_std_th": "การค้าปลีกและร้านค้า", "category_sub": "cosmetics_store", "category_sub_th": "cosmetics_store", "lat": 18.8001694, "lon": 98.9673704, "place_id": "ChIJcXWlbnU72jAR8sECfjGaPK8", "name": "Win Plus By Win Cosmetics", "pri_type": "cosmetics_store", "types": "cosmetics_store,store,point_of_interest,establishment", "address": "4 ถนนนิมมานเหมินท์ Nimmanhaemin ตำบลสุเทพ อำเภอเมืองเชียงใหม่ เชียงใหม่ 50200", "query_lat": 18.800323759144664, "query_lon": 98.967267463932515 }, "geometry": { "type": "Point", "coordinates": [ 98.9673704, 18.8001694 ] } },
{ "type": "Feature", "properties": { "source": "gg", "poi_id": "ChIJKYbu5TQ72jARPtMm2lkiYDU", "poi_name": "Cosmateline", "category_raw": "store", "category_std": "retail_commerce", "category_std_th": "การค้าปลีกและร้านค้า", "category_sub": "store", "category_sub_th": "ร้านค้าทั่วไป", "lat": 18.8003575, "lon": 98.967464, "place_id": "ChIJKYbu5TQ72jARPtMm2lkiYDU", "name": "Cosmateline", "pri_type": "store", "types": "store,health,point_of_interest,service,establishment", "address": "4 ถนนนิมมานเหมินท์ Nimmanhaemin ตำบลสุเทพ อำเภอเมืองเชียงใหม่ เชียงใหม่ 50200", "query_lat": 18.800323759144664, "query_lon": 98.967267463932515 }, "geometry": { "type": "Point", "coordinates": [ 98.967464, 18.8003575 ] } },
{ "type": "Feature", "properties": { "source": "gg", "poi_id": "ChIJMa5-7WE62jARupKG2SF06Ws", "poi_name": "Pro Language School Chiang Mai", "category_raw": "educational_institution", "category_std": "education_religion", "category_std_th": "การศึกษาและศาสนา", "category_sub": "educational_institution", "category_sub_th": "สถานศึกษา", "lat": 18.8003575, "lon": 98.967464, "place_id": "ChIJMa5-7WE62jARupKG2SF06Ws", "name": "Pro Language School Chiang Mai", "pri_type": "educational_institution", "types": "educational_institution,point_of_interest,establishment", "address": "6 4-5 ถนนนิมมานเหมินท์ Nimmanhaemin ตำบลสุเทพ อำเภอเมืองเชียงใหม่ เชียงใหม่ 50200", "query_lat": 18.800323759144664, "query_lon": 98.967267463932515 }, "geometry": { "type": "Point", "coordinates": [ 98.967464, 18.8003575 ] } },
{ "type": "Feature", "properties": { "source": "gg", "poi_id": "ChIJTwlXK8E72jAR-E_t9gehOH8", "poi_name": "Food panda nimman", "category_raw": "nail_salon", "category_std": "personal_service_repair", "category_std_th": "บริการส่วนบุคคลและงานซ่อม", "category_sub": "nail_salon", "category_sub_th": "nail_salon", "lat": 18.8004007, "lon": 98.9674797, "place_id": "ChIJTwlXK8E72jAR-E_t9gehOH8", "name": "Food panda nimman", "pri_type": "nail_salon", "types": "nail_salon,hair_care,beauty_salon,point_of_interest,service,establishment", "address": "6 6 ถนนนิมมานเหมินท์ Nimmanhaemin ตำบลสุเทพ อำเภอเมืองเชียงใหม่ เชียงใหม่ 50200", "query_lat": 18.800323759144664, "query_lon": 98.967267463932515 }, "geometry": { "type": "Point", "coordinates": [ 98.9674797, 18.8004007 ] } },
{ "type": "Feature", "properties": { "source": "gg", "poi_id": "ChIJzWpX7GE62jARMpkMy5eHVhQ", "poi_name": "Lanna Massage", "category_raw": "massage", "category_std": "personal_service_repair", "category_std_th": "บริการส่วนบุคคลและงานซ่อม", "category_sub": "massage", "category_sub_th": "ร้านนวด", "lat": 18.8004449, "lon": 98.9674908, "place_id": "ChIJzWpX7GE62jARMpkMy5eHVhQ", "name": "Lanna Massage", "pri_type": "massage", "types": "massage,point_of_interest,service,establishment", "address": "T. Suthep Muang Chiang Mai 6/9-10 ถนนนิมมานเหมินท์ Nimmanhaemin ตำบลสุเทพ อำเภอเมืองเชียงใหม่ เชียงใหม่ 50200", "query_lat": 18.800323759144664, "query_lon": 98.967267463932515 }, "geometry": { "type": "Point", "coordinates": [ 98.9674908, 18.8004449 ] } },
{ "type": "Feature", "properties": { "source": "gg", "poi_id": "ChIJPRKGQvo72jAR_MqW_En4CZ8", "poi_name": "Doii.dough", "category_raw": "bakery", "category_std": "food_beverage", "category_std_th": "อาหารและเครื่องดื่ม", "category_sub": "bakery", "category_sub_th": "ร้านเบเกอรี", "lat": 18.8005452, "lon": 98.9675156, "place_id": "ChIJPRKGQvo72jAR_MqW_En4CZ8", "name": "Doii.dough", "pri_type": "bakery", "types": "bakery,food_store,food,store,point_of_interest,establishment", "address": "Nimmanhaemin ตำบลสุเทพ อำเภอเมืองเชียงใหม่ เชียงใหม่ 50200", "query_lat": 18.80062304872941, "query_lon": 98.967318469710023 }, "geometry": { "type": "Point", "coordinates": [ 98.9675156, 18.8005452 ] } },
{ "type": "Feature", "properties": { "source": "gg", "poi_id": "ChIJlVn2v9A72jAReXy8LSUtEZg", "poi_name": "Camellia&Co : กระเป๋าสาน งานส่งออก", "category_raw": "store", "category_std": "retail_commerce", "category_std_th": "การค้าปลีกและร้านค้า", "category_sub": "store", "category_sub_th": "ร้านค้าทั่วไป", "lat": 18.8005389, "lon": 98.9675129, "place_id": "ChIJlVn2v9A72jAReXy8LSUtEZg", "name": "Camellia&Co : กระเป๋าสาน งานส่งออก", "pri_type": "store", "types": "store,point_of_interest,establishment", "address": "11 ซอย หมู่บ้านดาวดึงส์ Nimmanhaemin ตำบลสุเทพ อำเภอเมืองเชียงใหม่ เชียงใหม่ 50200", "query_lat": 18.80062304872941, "query_lon": 98.967318469710023 }, "geometry": { "type": "Point", "coordinates": [ 98.967512899999988, 18.8005389 ] } },
{ "type": "Feature", "properties": { "source": "gg", "poi_id": "ChIJCwdt7GE62jARpYxKWAS83G0", "poi_name": "บริษัท ลาเบลแบงค์เอเซีย จำกัด", "category_raw": "service", "category_std": "personal_service_repair", "category_std_th": "บริการส่วนบุคคลและงานซ่อม", "category_sub": "service", "category_sub_th": "service", "lat": 18.8005394, "lon": 98.9675328, "place_id": "ChIJCwdt7GE62jARpYxKWAS83G0", "name": "บริษัท ลาเบลแบงค์เอเซีย จำกัด", "pri_type": "service", "types": "service,point_of_interest,establishment", "address": "11ถนนพิมมานเหมินท์, ซ.11 ต.สุเทพ อ.เมือง เชียงใหม่, 50200 Nimmanhaemin ตำบลสุเทพ อำเภอเมืองเชียงใหม่ เชียงให", "query_lat": 18.80062304872941, "query_lon": 98.967318469710023 }, "geometry": { "type": "Point", "coordinates": [ 98.9675328, 18.8005394 ] } },
{ "type": "Feature", "properties": { "source": "gg", "poi_id": "ChIJu10X7WE62jAR-HerDT39jeY", "poi_name": "Bed Addict Hostel", "category_raw": "hostel", "category_std": "tourism_culture", "category_std_th": "ที่พัก การท่องเที่ยว และวัฒนธรรม", "category_sub": "hostel", "category_sub_th": "โฮสเทล", "lat": 18.800496, "lon": 98.967512, "place_id": "ChIJu10X7WE62jAR-HerDT39jeY", "name": "Bed Addict Hostel", "pri_type": "hostel", "types": "hostel,lodging,point_of_interest,establishment", "address": "6/11 Nimmanhemin Rd, Nimmanhaemin ตำบลสุเทพ อำเภอเมืองเชียงใหม่ เชียงใหม่ 50200", "query_lat": 18.80062304872941, "query_lon": 98.967318469710023 }, "geometry": { "type": "Point", "coordinates": [ 98.967512, 18.800496 ] } },
{ "type": "Feature", "properties": { "source": "gg", "poi_id": "ChIJM1MKdWk72jARq_QPI8CK-SM", "poi_name": "Ccccc CAFE", "category_raw": "coffee_shop", "category_std": "food_beverage", "category_std_th": "อาหารและเครื่องดื่ม", "category_sub": "coffee_shop", "category_sub_th": "ร้านกาแฟ", "lat": 18.8004833, "lon": 98.9675075, "place_id": "ChIJM1MKdWk72jARq_QPI8CK-SM", "name": "Ccccc CAFE", "pri_type": "coffee_shop", "types": "coffee_shop,bakery,cafe,food_store,food,store,point_of_interest,establishment", "address": "6 11 Nimmanhemin Rd Nimmanhaemin ตำบลสุเทพ อำเภอเมืองเชียงใหม่ เชียงใหม่ 50200", "query_lat": 18.80062304872941, "query_lon": 98.967318469710023 }, "geometry": { "type": "Point", "coordinates": [ 98.9675075, 18.8004833 ] } },
{ "type": "Feature", "properties": { "source": "gg", "poi_id": "ChIJy6twDw872jARlOhpkEco6Mo", "poi_name": "รถลากใกล้ฉัน รถลากเชียงใหม่ byPreaw", "category_raw": "service", "category_std": "personal_service_repair", "category_std_th": "บริการส่วนบุคคลและงานซ่อม", "category_sub": "service", "category_sub_th": "service", "lat": 18.7992555, "lon": 98.9671631, "place_id": "ChIJy6twDw872jARlOhpkEco6Mo", "name": "รถลากใกล้ฉัน รถลากเชียงใหม่ byPreaw", "pri_type": "service", "types": "service,point_of_interest,establishment", "address": "RX34+WQ8 Nimmanhaemin ตำบลสุเทพ อำเภอเมืองเชียงใหม่ เชียงใหม่ 50200", "query_lat": 18.799118089323564, "query_lon": 98.967348308672356 }, "geometry": { "type": "Point", "coordinates": [ 98.9671631, 18.7992555 ] } },
{ "type": "Feature", "properties": { "source": "gg", "poi_id": "ChIJI2uR6Vs92jARYn9YBAr33_g", "poi_name": "SANOOK WOODEN GAMES LTD", "category_raw": "manufacturer", "category_std": "office_professional", "category_std_th": "สำนักงานและบริการวิชาชีพ", "category_sub": "manufacturer", "category_sub_th": "manufacturer", "lat": 18.8008241, "lon": 98.9675858, "place_id": "ChIJI2uR6Vs92jARYn9YBAr33_g", "name": "SANOOK WOODEN GAMES LTD", "pri_type": "manufacturer", "types": "manufacturer,point_of_interest,establishment", "address": "Think Park Night Market, Nimmanhaemin ตำบลสุเทพ อำเภอเมืองเชียงใหม่ เชียงใหม่ 50100", "query_lat": 18.800874689977562, "query_lon": 98.967597637236878 }, "geometry": { "type": "Point", "coordinates": [ 98.9675858, 18.8008241 ] } },
{ "type": "Feature", "properties": { "source": "gg", "poi_id": "ChIJJYnkwmE62jARcHcM5JjSeg0", "poi_name": "ร้านแฟร์คัท โดยนายนิราศ ตุงคะรักษ์", "category_raw": "point_of_interest", "category_std": "tourism_culture", "category_std_th": "ที่พัก การท่องเที่ยว และวัฒนธรรม", "category_sub": "point_of_interest", "category_sub_th": "point_of_interest", "lat": 18.801197, "lon": 98.967891, "place_id": "ChIJJYnkwmE62jARcHcM5JjSeg0", "name": "ร้านแฟร์คัท โดยนายนิราศ ตุงคะรักษ์", "pri_type": "point_of_interest", "types": "point_of_interest,establishment", "address": "24/12 ถนนนิมมานเหมินท์ Nimmanhaemin ตำบลสุเทพ อำเภอเมืองเชียงใหม่ เชียงใหม่ 50200", "query_lat": 18.801197085718737, "query_lon": 98.967641543249243 }, "geometry": { "type": "Point", "coordinates": [ 98.967891, 18.801197 ] } },
{ "type": "Feature", "properties": { "source": "gg", "poi_id": "ChIJEeMaVQA72jARrGyoubwSfJI", "poi_name": "ทางแยกรินคำ", "category_raw": "government_office", "category_std": "office_professional", "category_std_th": "สำนักงานและบริการวิชาชีพ", "category_sub": "government_office", "category_sub_th": "หน่วยงานราชการ", "lat": 18.8013288, "lon": 98.967882, "place_id": "ChIJEeMaVQA72jARrGyoubwSfJI", "name": "ทางแยกรินคำ", "pri_type": "government_office", "types": "government_office,point_of_interest,establishment", "address": "95/13-14 ถนนนิมมานเหมินท์ ตำบลช้างเผือก อำเภอเมืองเชียงใหม่ เชียงใหม่ 50200", "query_lat": 18.801197085718737, "query_lon": 98.967641543249243 }, "geometry": { "type": "Point", "coordinates": [ 98.967882, 18.8013288 ] } }
]
}
