{
"type": "FeatureCollection",
"name": "muni",
"crs": { "type": "name", "properties": { "name": "urn:ogc:def:crs:OGC:1.3:CRS84" } },
"features": [
{ "type": "Feature", "properties": { "P_NAME_T": "เชียงใหม่", "P_NAME_E": "CHIANG MAI", "Area_km2": 22060.565587699999 }, "geometry": { "type": "Polygon", "coordinates": [ [ [ 98.9887154, 18.8410447 ], [ 98.989284, 18.840339 ], [ 98.9898044, 18.8393896 ], [ 98.9902282, 18.8385215 ], [ 98.990619800000019, 18.8373334 ], [ 98.991188399999984, 18.8357849 ], [ 98.99179460000002, 18.8340891 ], [ 98.992272, 18.833185400000016 ], [ 98.9929318, 18.832632 ], [ 98.9936185, 18.8322258 ], [ 98.994627, 18.8317384 ], [ 98.9956677, 18.8310986 ], [ 98.996526, 18.830469099999988 ], [ 98.9970732, 18.829910500000011 ], [ 98.9977813, 18.8287834 ], [ 98.9978671, 18.8282046 ], [ 98.997781300000014, 18.827514 ], [ 98.9972985, 18.8264376 ], [ 98.9961719, 18.8250464 ], [ 98.9955068, 18.8242645 ], [ 98.9951742, 18.8236247 ], [ 98.9951634, 18.8226701 ], [ 98.9955819, 18.8216242 ], [ 98.9961827, 18.8208219 ], [ 98.997277, 18.8199384 ], [ 98.9987361, 18.8188112 ], [ 98.9996052, 18.8178159 ], [ 99.0007424, 18.8166582 ], [ 99.0018046, 18.8150943 ], [ 99.002743399999986, 18.8133323 ], [ 99.0030974, 18.8123167 ], [ 99.0031242, 18.8114839 ], [ 99.00338170000002, 18.8106512 ], [ 99.003478300000012, 18.8103871 ], [ 99.005152, 18.8102957 ], [ 99.0071529, 18.8101535 ], [ 99.0104574, 18.809889500000018 ], [ 99.0114498, 18.8097473 ], [ 99.012605799999989, 18.8094096 ], [ 99.0132549, 18.809176 ], [ 99.014094500000013, 18.8087673 ], [ 99.0148964, 18.808312799999985 ], [ 99.0157869, 18.8076577 ], [ 99.016369, 18.8071499 ], [ 99.017098500000017, 18.8063552 ], [ 99.0176243, 18.805636700000012 ], [ 99.01815, 18.8047785 ], [ 99.018445, 18.8042275 ], [ 99.0186551, 18.803857199999989 ], [ 99.0198554, 18.8047057 ], [ 99.0198344, 18.8010791 ], [ 99.0214384, 18.7971104 ], [ 99.0221518, 18.7954422 ], [ 99.02282240000001, 18.7939644 ], [ 99.023659200000012, 18.792324 ], [ 99.0245873, 18.7907903 ], [ 99.025611900000015, 18.7889722 ], [ 99.0263039, 18.78720490000001 ], [ 99.026711600000013, 18.7859657 ], [ 99.027012, 18.784437 ], [ 99.0271514, 18.7834961 ], [ 99.027183600000015, 18.7832791 ], [ 99.0282512, 18.7751986 ], [ 99.02897, 18.770211 ], [ 99.0298122, 18.7642988 ], [ 99.0283263, 18.7639636 ], [ 99.018209, 18.7604791 ], [ 99.0150359, 18.7593388 ], [ 99.0137887, 18.7590086 ], [ 99.0116724, 18.758670800000012 ], [ 99.0091458, 18.7582899 ], [ 99.0074158, 18.7579292 ], [ 99.003628500000019, 18.7570556 ], [ 99.001976299999981, 18.7567216 ], [ 99.001415699999981, 18.7567749 ], [ 99.0009704, 18.7568752 ], [ 99.000538599999985, 18.7570936 ], [ 99.000130899999988, 18.7573705 ], [ 98.9993108, 18.7582378 ], [ 98.9989876, 18.7585375 ], [ 98.9982252, 18.7591966 ], [ 98.997147600000019, 18.7600888 ], [ 98.9956087, 18.7613629 ], [ 98.994171, 18.762521 ], [ 98.9913252, 18.7648778 ], [ 98.990922900000015, 18.7651369 ], [ 98.9763585, 18.7677755 ], [ 98.9761358, 18.7699723 ], [ 98.9758301, 18.7701062 ], [ 98.9752078, 18.7703786 ], [ 98.9734214, 18.77143 ], [ 98.972885, 18.7716331 ], [ 98.9707661, 18.7720191 ], [ 98.9707714, 18.7729131 ], [ 98.9727187, 18.7729131 ], [ 98.9728045, 18.7732991 ], [ 98.973341, 18.7734616 ], [ 98.9734483, 18.7743504 ], [ 98.9738131, 18.7752138 ], [ 98.9737809, 18.7758487 ], [ 98.9757818, 18.7766156 ], [ 98.976023200000014, 18.7770524 ], [ 98.976023200000014, 18.7773978 ], [ 98.975915900000018, 18.7776924 ], [ 98.975685200000015, 18.7780784 ], [ 98.9755726, 18.7783323 ], [ 98.975564500000019, 18.7787792 ], [ 98.9754304, 18.7792287 ], [ 98.975317800000013, 18.7792567 ], [ 98.975513600000014, 18.7814253 ], [ 98.9757067, 18.7814863 ], [ 98.9759615, 18.7837361 ], [ 98.9757442, 18.7860546 ], [ 98.9752239, 18.786113 ], [ 98.974086600000021, 18.786113 ], [ 98.9739472, 18.7862044 ], [ 98.97387209999998, 18.7864482 ], [ 98.9734966, 18.7863821 ], [ 98.972879599999985, 18.7863872 ], [ 98.9727938, 18.786245 ], [ 98.9727777, 18.784406500000014 ], [ 98.9730245, 18.78431 ], [ 98.97323369999998, 18.7831978 ], [ 98.9722413, 18.7834111 ], [ 98.9716619, 18.7815624 ], [ 98.970798200000019, 18.781598 ], [ 98.9706534, 18.7816437 ], [ 98.970243, 18.7835635 ], [ 98.9651361, 18.783536800000011 ], [ 98.962818700000014, 18.787022 ], [ 98.959114499999984, 18.7868443 ], [ 98.9605214, 18.7909566 ], [ 98.9572853, 18.7920828 ], [ 98.953138599999988, 18.793294 ], [ 98.950561, 18.7940558 ], [ 98.946079, 18.795076500000011 ], [ 98.9459181, 18.7986466 ], [ 98.9426458, 18.7976919 ], [ 98.9441264, 18.80148530000001 ], [ 98.9432466, 18.8041209 ], [ 98.945843, 18.8035318 ], [ 98.945354800000018, 18.806761500000015 ], [ 98.9463955, 18.8102805 ], [ 98.9474094, 18.8111793 ], [ 98.947522, 18.8108238 ], [ 98.9476508, 18.8107578 ], [ 98.9488363, 18.810727300000011 ], [ 98.952097900000012, 18.8097828 ], [ 98.9677674, 18.801510700000012 ], [ 98.968381600000015, 18.8027802 ], [ 98.969036, 18.803920300000012 ], [ 98.9696047, 18.804857200000011 ], [ 98.970849199999989, 18.8062689 ], [ 98.972075, 18.8074571 ], [ 98.973362400000013, 18.808465099999989 ], [ 98.974403099999989, 18.809176 ], [ 98.97605, 18.8100647 ], [ 98.9777157, 18.8107553 ], [ 98.978866300000021, 18.8111539 ], [ 98.979864100000015, 18.8114027 ], [ 98.9815137, 18.8117023 ], [ 98.9820582, 18.8117556 ], [ 98.980041, 18.8168896 ], [ 98.9794725, 18.8183364 ], [ 98.9788234, 18.8200831 ], [ 98.9783943, 18.8216419 ], [ 98.97775590000002, 18.823962399999989 ], [ 98.977283799999981, 18.8259324 ], [ 98.9770371, 18.8270494 ], [ 98.9769405, 18.827349 ], [ 98.976758100000012, 18.8278821 ], [ 98.975674500000011, 18.8300908 ], [ 98.9750147, 18.831603800000011 ], [ 98.9742851, 18.8335129 ], [ 98.9709353, 18.8418593 ], [ 98.9727641, 18.8425094 ], [ 98.9731496, 18.8415873 ], [ 98.974554899999987, 18.8421445 ], [ 98.97484750000001, 18.8422605 ], [ 98.974865099999988, 18.8422675 ], [ 98.9752607, 18.8424538 ], [ 98.9756262, 18.8418114 ], [ 98.976699100000019, 18.8415575 ], [ 98.9774072, 18.8406234 ], [ 98.9776647, 18.8404558 ], [ 98.9782172, 18.840598 ], [ 98.9790702, 18.8409686 ], [ 98.98180069999998, 18.8424663 ], [ 98.985417, 18.844169600000011 ], [ 98.9854808, 18.8440176 ], [ 98.9855868, 18.8438222 ], [ 98.9858502, 18.8433273 ], [ 98.9859186, 18.843229600000011 ], [ 98.9860584, 18.843048100000011 ], [ 98.98607250000002, 18.84302120000001 ], [ 98.9862237, 18.8430059 ], [ 98.9867842, 18.8424866 ], [ 98.987894600000018, 18.841755500000012 ], [ 98.9887154, 18.8410447 ] ] ] } }
]
}
