{
"type": "FeatureCollection",
"name": "osm_poi_clip_10m",
"crs": { "type": "name", "properties": { "name": "urn:ogc:def:crs:OGC:1.3:CRS84" } },
"features": [
{ "type": "Feature", "properties": { "source": "osm", "poi_id": "1796986984", "poi_name": "Ming Muang", "category_raw": "cafe", "category_std": "food_beverage", "category_std_th": "อาหารและเครื่องดื่ม", "category_sub": "cafe", "category_sub_th": "ร้านกาแฟ", "lat": 18.7977747, "lon": 98.9666391, "osm_id": "1796986984", "code": 2303, "fclass": "cafe", "name": "Ming Muang" }, "geometry": { "type": "Point", "coordinates": [ 98.9666391, 18.7977747 ] } },
{ "type": "Feature", "properties": { "source": "osm", "poi_id": "1797053388", "poi_name": "", "category_raw": "atm", "category_std": "finance_insurance", "category_std_th": "การเงินและประกันภัย", "category_sub": "atm", "category_sub_th": "ตู้เอทีเอ็ม", "lat": 18.7966172, "lon": 98.9662016, "osm_id": "1797053388", "code": 2602, "fclass": "atm", "name": null }, "geometry": { "type": "Point", "coordinates": [ 98.9662016, 18.7966172 ] } },
{ "type": "Feature", "properties": { "source": "osm", "poi_id": "2685045433", "poi_name": "99 Pharmacy", "category_raw": "pharmacy", "category_std": "health", "category_std_th": "สุขภาพและการแพทย์", "category_sub": "pharmacy", "category_sub_th": "ร้านขายยา", "lat": 18.7961758, "lon": 98.9660426, "osm_id": "2685045433", "code": 2101, "fclass": "pharmacy", "name": "99 Pharmacy" }, "geometry": { "type": "Point", "coordinates": [ 98.9660426, 18.7961758 ] } },
{ "type": "Feature", "properties": { "source": "osm", "poi_id": "3276155587", "poi_name": "", "category_raw": "post_box", "category_std": "other", "category_std_th": "อื่น ๆ", "category_sub": "post_box", "category_sub_th": "post_box", "lat": 18.8002629, "lon": 98.9674083, "osm_id": "3276155587", "code": 2004, "fclass": "post_box", "name": null }, "geometry": { "type": "Point", "coordinates": [ 98.9674083, 18.8002629 ] } },
{ "type": "Feature", "properties": { "source": "osm", "poi_id": "3400287976", "poi_name": "Fruiturday", "category_raw": "cafe", "category_std": "food_beverage", "category_std_th": "อาหารและเครื่องดื่ม", "category_sub": "cafe", "category_sub_th": "ร้านกาแฟ", "lat": 18.7962483, "lon": 98.9660692, "osm_id": "3400287976", "code": 2303, "fclass": "cafe", "name": "Fruiturday" }, "geometry": { "type": "Point", "coordinates": [ 98.9660692, 18.7962483 ] } },
{ "type": "Feature", "properties": { "source": "osm", "poi_id": "4285564392", "poi_name": "", "category_raw": "atm", "category_std": "finance_insurance", "category_std_th": "การเงินและประกันภัย", "category_sub": "atm", "category_sub_th": "ตู้เอทีเอ็ม", "lat": 18.7951256, "lon": 98.9655011, "osm_id": "4285564392", "code": 2602, "fclass": "atm", "name": null }, "geometry": { "type": "Point", "coordinates": [ 98.9655011, 18.7951256 ] } },
{ "type": "Feature", "properties": { "source": "osm", "poi_id": "4496361990", "poi_name": "Black Ground", "category_raw": "cafe", "category_std": "food_beverage", "category_std_th": "อาหารและเครื่องดื่ม", "category_sub": "cafe", "category_sub_th": "ร้านกาแฟ", "lat": 18.7950112, "lon": 98.9654459, "osm_id": "4496361990", "code": 2303, "fclass": "cafe", "name": "Black Ground" }, "geometry": { "type": "Point", "coordinates": [ 98.9654459, 18.7950112 ] } },
{ "type": "Feature", "properties": { "source": "osm", "poi_id": "4783966224", "poi_name": "", "category_raw": "laundry", "category_std": "personal_service_repair", "category_std_th": "บริการส่วนบุคคลและงานซ่อม", "category_sub": "laundry", "category_sub_th": "ร้านซักรีด", "lat": 18.8009617, "lon": 98.9676393, "osm_id": "4783966224", "code": 2568, "fclass": "laundry", "name": null }, "geometry": { "type": "Point", "coordinates": [ 98.9676393, 18.8009617 ] } },
{ "type": "Feature", "properties": { "source": "osm", "poi_id": "5367372322", "poi_name": "", "category_raw": "restaurant", "category_std": "food_beverage", "category_std_th": "อาหารและเครื่องดื่ม", "category_sub": "restaurant", "category_sub_th": "ร้านอาหาร", "lat": 18.801166, "lon": 98.9677192, "osm_id": "5367372322", "code": 2301, "fclass": "restaurant", "name": null }, "geometry": { "type": "Point", "coordinates": [ 98.9677192, 18.801166 ] } },
{ "type": "Feature", "properties": { "source": "osm", "poi_id": "12595862073", "poi_name": "", "category_raw": "waste_basket", "category_std": "other", "category_std_th": "อื่น ๆ", "category_sub": "waste_basket", "category_sub_th": "waste_basket", "lat": 18.7998807, "lon": 98.9673916, "osm_id": "12595862073", "code": 2906, "fclass": "waste_basket", "name": null }, "geometry": { "type": "Point", "coordinates": [ 98.9673916, 18.7998807 ] } }
]
}
