{
"type": "FeatureCollection",
"name": "road_nimman",
"crs": { "type": "name", "properties": { "name": "urn:ogc:def:crs:OGC:1.3:CRS84" } },
"features": [
{ "type": "Feature", "properties": { "full_id": "w627946320", "osm_id": "627946320", "osm_type": "way", "highway": "secondary", "name": "ถนนนิมมานเหมินท์", "surface": "asphalt", "maxspeed": null, "ref": "11" }, "geometry": { "type": "MultiLineString", "coordinates": [ [ [ 98.9653306, 18.794575 ], [ 98.9654186, 18.794796 ], [ 98.9655046, 18.7950199 ], [ 98.9656196, 18.7953189 ], [ 98.965703, 18.7955361 ], [ 98.9658113, 18.7958179 ], [ 98.9659224, 18.7961069 ], [ 98.9659657, 18.7962207 ], [ 98.9660084, 18.7963367 ], [ 98.9661468, 18.7966965 ], [ 98.9662327, 18.7969223 ], [ 98.9663104, 18.7971264 ], [ 98.9665344, 18.7977288 ], [ 98.9667711, 18.798331 ], [ 98.9668617, 18.7985778 ], [ 98.9669274, 18.7987566 ], [ 98.9670453, 18.7990778 ], [ 98.9671196, 18.7992803 ], [ 98.9672264, 18.7995712 ], [ 98.9672826, 18.7997243 ], [ 98.9674153, 18.8000859 ], [ 98.9675993, 18.8005947 ], [ 98.9676115, 18.8006203 ] ], [ [ 98.9679227, 18.8012644 ], [ 98.9679018, 18.8012279 ], [ 98.96787, 18.8011682 ], [ 98.9678137, 18.8010619 ], [ 98.9676364, 18.8006748 ], [ 98.9676115, 18.8006203 ] ], [ [ 98.9676115, 18.8006203 ], [ 98.967627, 18.8006779 ], [ 98.9677372, 18.8010861 ], [ 98.9677597, 18.8011636 ], [ 98.9677707, 18.8012016 ], [ 98.9677811, 18.8012373 ], [ 98.9677923, 18.8012758 ], [ 98.9678053, 18.8013219 ] ] ] } }
]
}
