{
"type": "FeatureCollection",
"name": "sv_poi_clip_10m",
"crs": { "type": "name", "properties": { "name": "urn:ogc:def:crs:OGC:1.3:CRS84" } },
"features": [
{ "type": "Feature", "properties": { "source": "sv", "poi_id": "12903_left", "poi_name": "P Charoen", "category_raw": "shop=yes", "category_std": "retail_commerce", "category_std_th": "การค้าปลีกและร้านค้า", "category_sub": "shop=yes", "category_sub_th": "ร้านค้าไม่ระบุประเภทย่อย", "lat": 18.797030155364386, "lon": 98.966366053193525, "point_id": 12903, "side": "left", "pano_id": "DFhS8-YtWXPWjEc8oDk_XA", "heading": 186.019, "poi_names": "P Charoen", "categories": "shop=yes", "poi_count": 1 }, "geometry": { "type": "Point", "coordinates": [ 98.966366053193525, 18.797030155364386 ] } },
{ "type": "Feature", "properties": { "source": "sv", "poi_id": "28043_left", "poi_name": "gelato", "category_raw": "amenity=cafe", "category_std": "food_beverage", "category_std_th": "อาหารและเครื่องดื่ม", "category_sub": "amenity=cafe", "category_sub_th": "ร้านกาแฟ", "lat": 18.800534718481291, "lon": 98.967499839346644, "point_id": 28043, "side": "left", "pano_id": "LzJE7uPcjlyrQ8t_DtGIkw", "heading": 201.107, "poi_names": "gelato", "categories": "amenity=cafe", "poi_count": 1 }, "geometry": { "type": "Point", "coordinates": [ 98.967499839346644, 18.800534718481291 ] } },
{ "type": "Feature", "properties": { "source": "sv", "poi_id": "29416_left", "poi_name": "ร้านขายยาภานุรักษ์ | balloon shop", "category_raw": "amenity=pharmacy | shop=yes", "category_std": "other", "category_std_th": "อื่น ๆ", "category_sub": "amenity=pharmacy | shop=yes", "category_sub_th": "amenity=pharmacy | shop=yes", "lat": 18.795350044160323, "lon": 98.965530917689961, "point_id": 29416, "side": "left", "pano_id": "8J1PCKCBMK2-SvQtSwQsIw", "heading": 290.098, "poi_names": "ร้านขายยาภานุรักษ์ | balloon shop", "categories": "amenity=pharmacy | shop=yes", "poi_count": 2 }, "geometry": { "type": "Point", "coordinates": [ 98.965530917689961, 18.795350044160323 ] } },
{ "type": "Feature", "properties": { "source": "sv", "poi_id": "38989_left", "poi_name": "รินคา", "category_raw": "shop=yes", "category_std": "retail_commerce", "category_std_th": "การค้าปลีกและร้านค้า", "category_sub": "shop=yes", "category_sub_th": "ร้านค้าไม่ระบุประเภทย่อย", "lat": 18.801146737507889, "lon": 98.967961786517563, "point_id": 38989, "side": "left", "pano_id": "yhiZ8LEh4A7K-dfiwiPf_Q", "heading": 204.417, "poi_names": "รินคา", "categories": "shop=yes", "poi_count": 1 }, "geometry": { "type": "Point", "coordinates": [ 98.967961786517563, 18.801146737507889 ] } },
{ "type": "Feature", "properties": { "source": "sv", "poi_id": "46431_left", "poi_name": "Car Cafe", "category_raw": "amenity=cafe", "category_std": "food_beverage", "category_std_th": "อาหารและเครื่องดื่ม", "category_sub": "amenity=cafe", "category_sub_th": "ร้านกาแฟ", "lat": 18.800638939788072, "lon": 98.967722977244804, "point_id": 46431, "side": "left", "pano_id": "A-U-1YaBQpdQ5euVDPObqQ", "heading": 113.525, "poi_names": "Car Cafe", "categories": "amenity=cafe", "poi_count": 1 }, "geometry": { "type": "Point", "coordinates": [ 98.967722977244804, 18.800638939788072 ] } },
{ "type": "Feature", "properties": { "source": "sv", "poi_id": "53891_left", "poi_name": "Hills Tolfana", "category_raw": "tourism=hotel", "category_std": "tourism_culture", "category_std_th": "ที่พัก การท่องเที่ยว และวัฒนธรรม", "category_sub": "tourism=hotel", "category_sub_th": "โรงแรม", "lat": 18.796836766327967, "lon": 98.966201552291324, "point_id": 53891, "side": "left", "pano_id": "t3B6ZeU5YTGTLLwYwKtoBw", "heading": 199.361, "poi_names": "Hills Tolfana", "categories": "tourism=hotel", "poi_count": 1 }, "geometry": { "type": "Point", "coordinates": [ 98.966201552291324, 18.796836766327967 ] } },
{ "type": "Feature", "properties": { "source": "sv", "poi_id": "53943_left", "poi_name": "n spa", "category_raw": "shop=massage", "category_std": "personal_service_repair", "category_std_th": "บริการส่วนบุคคลและงานซ่อม", "category_sub": "shop=massage", "category_sub_th": "ร้านนวด", "lat": 18.79601907673257, "lon": 98.965787929860625, "point_id": 53943, "side": "left", "pano_id": "XjTRaTVVA4lF5dpYTL5IWg", "heading": 290.12, "poi_names": "n spa", "categories": "shop=massage", "poi_count": 1 }, "geometry": { "type": "Point", "coordinates": [ 98.965787929860625, 18.79601907673257 ] } },
{ "type": "Feature", "properties": { "source": "sv", "poi_id": "55245_right", "poi_name": "Xavier Chiang Mai Nimman 5", "category_raw": "tourism=hotel", "category_std": "tourism_culture", "category_std_th": "ที่พัก การท่องเที่ยว และวัฒนธรรม", "category_sub": "tourism=hotel", "category_sub_th": "โรงแรม", "lat": 18.798727171681779, "lon": 98.96701654091386, "point_id": 55245, "side": "right", "pano_id": "isi44EOWvWK2X3kLv6dq2A", "heading": 109.279, "poi_names": "Xavier Chiang Mai Nimman 5", "categories": "tourism=hotel", "poi_count": 1 }, "geometry": { "type": "Point", "coordinates": [ 98.96701654091386, 18.798727171681779 ] } }
]
}
